{
  "type": "FeatureCollection",
  "name": "vica_route_graph",
  "crs": {
    "type": "name",
    "properties": {
      "name": "urn:ogc:def:crs:EPSG::3857"
    }
  },
  "features": [
    {
      "type": "Feature",
      "properties": {
        "id": 1,
        "frame": "map"
      },
      "geometry": {
        "type": "Point",
        "coordinates": [
          5.84,
          -2.636
        ]
      }
    },
    {
      "type": "Feature",
      "properties": {
        "id": 2,
        "frame": "map"
      },
      "geometry": {
        "type": "Point",
        "coordinates": [
          8.08,
          -2.636
        ]
      }
    },
    {
      "type": "Feature",
      "properties": {
        "id": 3,
        "frame": "map"
      },
      "geometry": {
        "type": "Point",
        "coordinates": [
          5.84,
          1.264
        ]
      }
    },
    {
      "type": "Feature",
      "properties": {
        "id": 4,
        "frame": "map"
      },
      "geometry": {
        "type": "Point",
        "coordinates": [
          6.84,
          2.264
        ]
      }
    },
    {
      "type": "Feature",
      "properties": {
        "id": 5,
        "frame": "map"
      },
      "geometry": {
        "type": "Point",
        "coordinates": [
          5.8889,
          1.573
        ]
      }
    },
    {
      "type": "Feature",
      "properties": {
        "id": 6,
        "frame": "map"
      },
      "geometry": {
        "type": "Point",
        "coordinates": [
          6.031,
          1.8518
        ]
      }
    },
    {
      "type": "Feature",
      "properties": {
        "id": 7,
        "frame": "map"
      },
      "geometry": {
        "type": "Point",
        "coordinates": [
          6.2522,
          2.073
        ]
      }
    },
    {
      "type": "Feature",
      "properties": {
        "id": 8,
        "frame": "map"
      },
      "geometry": {
        "type": "Point",
        "coordinates": [
          6.531,
          2.2151
        ]
      }
    },
    {
      "type": "Feature",
      "properties": {
        "id": 9,
        "frame": "map"
      },
      "geometry": {
        "type": "Point",
        "coordinates": [
          8.08,
          1.706
        ]
      }
    },
    {
      "type": "Feature",
      "properties": {
        "id": 10,
        "frame": "map"
      },
      "geometry": {
        "type": "Point",
        "coordinates": [
          7.522,
          2.264
        ]
      }
    },
    {
      "type": "Feature",
      "properties": {
        "id": 11,
        "frame": "map"
      },
      "geometry": {
        "type": "Point",
        "coordinates": [
          8.0527,
          1.8784
        ]
      }
    },
    {
      "type": "Feature",
      "properties": {
        "id": 12,
        "frame": "map"
      },
      "geometry": {
        "type": "Point",
        "coordinates": [
          7.9734,
          2.034
        ]
      }
    },
    {
      "type": "Feature",
      "properties": {
        "id": 13,
        "frame": "map"
      },
      "geometry": {
        "type": "Point",
        "coordinates": [
          7.85,
          2.1574
        ]
      }
    },
    {
      "type": "Feature",
      "properties": {
        "id": 14,
        "frame": "map"
      },
      "geometry": {
        "type": "Point",
        "coordinates": [
          7.6944,
          2.2367
        ]
      }
    },
    {
      "type": "Feature",
      "properties": {
        "id": 15,
        "frame": "map"
      },
      "geometry": {
        "type": "Point",
        "coordinates": [
          5.84,
          -1.661
        ]
      }
    },
    {
      "type": "Feature",
      "properties": {
        "id": 16,
        "frame": "map"
      },
      "geometry": {
        "type": "Point",
        "coordinates": [
          5.84,
          -0.686
        ]
      }
    },
    {
      "type": "Feature",
      "properties": {
        "id": 17,
        "frame": "map"
      },
      "geometry": {
        "type": "Point",
        "coordinates": [
          5.84,
          0.289
        ]
      }
    },
    {
      "type": "Feature",
      "properties": {
        "id": 18,
        "frame": "map"
      },
      "geometry": {
        "type": "Point",
        "coordinates": [
          8.08,
          -1.7676
        ]
      }
    },
    {
      "type": "Feature",
      "properties": {
        "id": 19,
        "frame": "map"
      },
      "geometry": {
        "type": "Point",
        "coordinates": [
          8.08,
          -0.8992
        ]
      }
    },
    {
      "type": "Feature",
      "properties": {
        "id": 20,
        "frame": "map"
      },
      "geometry": {
        "type": "Point",
        "coordinates": [
          8.08,
          -0.0308
        ]
      }
    },
    {
      "type": "Feature",
      "properties": {
        "id": 21,
        "frame": "map"
      },
      "geometry": {
        "type": "Point",
        "coordinates": [
          8.08,
          0.8376
        ]
      }
    },
    {
      "type": "Feature",
      "properties": {
        "id": 1001,
        "startid": 1,
        "endid": 15
      },
      "geometry": {
        "type": "MultiLineString",
        "coordinates": [
          [
            [
              5.84,
              -2.636
            ],
            [
              5.84,
              -1.661
            ]
          ]
        ]
      }
    },
    {
      "type": "Feature",
      "properties": {
        "id": 1002,
        "startid": 15,
        "endid": 1
      },
      "geometry": {
        "type": "MultiLineString",
        "coordinates": [
          [
            [
              5.84,
              -1.661
            ],
            [
              5.84,
              -2.636
            ]
          ]
        ]
      }
    },
    {
      "type": "Feature",
      "properties": {
        "id": 1003,
        "startid": 2,
        "endid": 18
      },
      "geometry": {
        "type": "MultiLineString",
        "coordinates": [
          [
            [
              8.08,
              -2.636
            ],
            [
              8.08,
              -1.7676
            ]
          ]
        ]
      }
    },
    {
      "type": "Feature",
      "properties": {
        "id": 1004,
        "startid": 18,
        "endid": 2
      },
      "geometry": {
        "type": "MultiLineString",
        "coordinates": [
          [
            [
              8.08,
              -1.7676
            ],
            [
              8.08,
              -2.636
            ]
          ]
        ]
      }
    },
    {
      "type": "Feature",
      "properties": {
        "id": 1005,
        "startid": 3,
        "endid": 5
      },
      "geometry": {
        "type": "MultiLineString",
        "coordinates": [
          [
            [
              5.84,
              1.264
            ],
            [
              5.8889,
              1.573
            ]
          ]
        ]
      }
    },
    {
      "type": "Feature",
      "properties": {
        "id": 1006,
        "startid": 5,
        "endid": 3
      },
      "geometry": {
        "type": "MultiLineString",
        "coordinates": [
          [
            [
              5.8889,
              1.573
            ],
            [
              5.84,
              1.264
            ]
          ]
        ]
      }
    },
    {
      "type": "Feature",
      "properties": {
        "id": 1007,
        "startid": 3,
        "endid": 17
      },
      "geometry": {
        "type": "MultiLineString",
        "coordinates": [
          [
            [
              5.84,
              1.264
            ],
            [
              5.84,
              0.289
            ]
          ]
        ]
      }
    },
    {
      "type": "Feature",
      "properties": {
        "id": 1008,
        "startid": 17,
        "endid": 3
      },
      "geometry": {
        "type": "MultiLineString",
        "coordinates": [
          [
            [
              5.84,
              0.289
            ],
            [
              5.84,
              1.264
            ]
          ]
        ]
      }
    },
    {
      "type": "Feature",
      "properties": {
        "id": 1009,
        "startid": 4,
        "endid": 8
      },
      "geometry": {
        "type": "MultiLineString",
        "coordinates": [
          [
            [
              6.84,
              2.264
            ],
            [
              6.531,
              2.2151
            ]
          ]
        ]
      }
    },
    {
      "type": "Feature",
      "properties": {
        "id": 1010,
        "startid": 8,
        "endid": 4
      },
      "geometry": {
        "type": "MultiLineString",
        "coordinates": [
          [
            [
              6.531,
              2.2151
            ],
            [
              6.84,
              2.264
            ]
          ]
        ]
      }
    },
    {
      "type": "Feature",
      "properties": {
        "id": 1011,
        "startid": 4,
        "endid": 10
      },
      "geometry": {
        "type": "MultiLineString",
        "coordinates": [
          [
            [
              6.84,
              2.264
            ],
            [
              7.522,
              2.264
            ]
          ]
        ]
      }
    },
    {
      "type": "Feature",
      "properties": {
        "id": 1012,
        "startid": 10,
        "endid": 4
      },
      "geometry": {
        "type": "MultiLineString",
        "coordinates": [
          [
            [
              7.522,
              2.264
            ],
            [
              6.84,
              2.264
            ]
          ]
        ]
      }
    },
    {
      "type": "Feature",
      "properties": {
        "id": 1013,
        "startid": 5,
        "endid": 6
      },
      "geometry": {
        "type": "MultiLineString",
        "coordinates": [
          [
            [
              5.8889,
              1.573
            ],
            [
              6.031,
              1.8518
            ]
          ]
        ]
      }
    },
    {
      "type": "Feature",
      "properties": {
        "id": 1014,
        "startid": 6,
        "endid": 5
      },
      "geometry": {
        "type": "MultiLineString",
        "coordinates": [
          [
            [
              6.031,
              1.8518
            ],
            [
              5.8889,
              1.573
            ]
          ]
        ]
      }
    },
    {
      "type": "Feature",
      "properties": {
        "id": 1015,
        "startid": 6,
        "endid": 7
      },
      "geometry": {
        "type": "MultiLineString",
        "coordinates": [
          [
            [
              6.031,
              1.8518
            ],
            [
              6.2522,
              2.073
            ]
          ]
        ]
      }
    },
    {
      "type": "Feature",
      "properties": {
        "id": 1016,
        "startid": 7,
        "endid": 6
      },
      "geometry": {
        "type": "MultiLineString",
        "coordinates": [
          [
            [
              6.2522,
              2.073
            ],
            [
              6.031,
              1.8518
            ]
          ]
        ]
      }
    },
    {
      "type": "Feature",
      "properties": {
        "id": 1017,
        "startid": 7,
        "endid": 8
      },
      "geometry": {
        "type": "MultiLineString",
        "coordinates": [
          [
            [
              6.2522,
              2.073
            ],
            [
              6.531,
              2.2151
            ]
          ]
        ]
      }
    },
    {
      "type": "Feature",
      "properties": {
        "id": 1018,
        "startid": 8,
        "endid": 7
      },
      "geometry": {
        "type": "MultiLineString",
        "coordinates": [
          [
            [
              6.531,
              2.2151
            ],
            [
              6.2522,
              2.073
            ]
          ]
        ]
      }
    },
    {
      "type": "Feature",
      "properties": {
        "id": 1019,
        "startid": 9,
        "endid": 11
      },
      "geometry": {
        "type": "MultiLineString",
        "coordinates": [
          [
            [
              8.08,
              1.706
            ],
            [
              8.0527,
              1.8784
            ]
          ]
        ]
      }
    },
    {
      "type": "Feature",
      "properties": {
        "id": 1020,
        "startid": 11,
        "endid": 9
      },
      "geometry": {
        "type": "MultiLineString",
        "coordinates": [
          [
            [
              8.0527,
              1.8784
            ],
            [
              8.08,
              1.706
            ]
          ]
        ]
      }
    },
    {
      "type": "Feature",
      "properties": {
        "id": 1021,
        "startid": 9,
        "endid": 21
      },
      "geometry": {
        "type": "MultiLineString",
        "coordinates": [
          [
            [
              8.08,
              1.706
            ],
            [
              8.08,
              0.8376
            ]
          ]
        ]
      }
    },
    {
      "type": "Feature",
      "properties": {
        "id": 1022,
        "startid": 21,
        "endid": 9
      },
      "geometry": {
        "type": "MultiLineString",
        "coordinates": [
          [
            [
              8.08,
              0.8376
            ],
            [
              8.08,
              1.706
            ]
          ]
        ]
      }
    },
    {
      "type": "Feature",
      "properties": {
        "id": 1023,
        "startid": 10,
        "endid": 14
      },
      "geometry": {
        "type": "MultiLineString",
        "coordinates": [
          [
            [
              7.522,
              2.264
            ],
            [
              7.6944,
              2.2367
            ]
          ]
        ]
      }
    },
    {
      "type": "Feature",
      "properties": {
        "id": 1024,
        "startid": 14,
        "endid": 10
      },
      "geometry": {
        "type": "MultiLineString",
        "coordinates": [
          [
            [
              7.6944,
              2.2367
            ],
            [
              7.522,
              2.264
            ]
          ]
        ]
      }
    },
    {
      "type": "Feature",
      "properties": {
        "id": 1025,
        "startid": 11,
        "endid": 12
      },
      "geometry": {
        "type": "MultiLineString",
        "coordinates": [
          [
            [
              8.0527,
              1.8784
            ],
            [
              7.9734,
              2.034
            ]
          ]
        ]
      }
    },
    {
      "type": "Feature",
      "properties": {
        "id": 1026,
        "startid": 12,
        "endid": 11
      },
      "geometry": {
        "type": "MultiLineString",
        "coordinates": [
          [
            [
              7.9734,
              2.034
            ],
            [
              8.0527,
              1.8784
            ]
          ]
        ]
      }
    },
    {
      "type": "Feature",
      "properties": {
        "id": 1027,
        "startid": 12,
        "endid": 13
      },
      "geometry": {
        "type": "MultiLineString",
        "coordinates": [
          [
            [
              7.9734,
              2.034
            ],
            [
              7.85,
              2.1574
            ]
          ]
        ]
      }
    },
    {
      "type": "Feature",
      "properties": {
        "id": 1028,
        "startid": 13,
        "endid": 12
      },
      "geometry": {
        "type": "MultiLineString",
        "coordinates": [
          [
            [
              7.85,
              2.1574
            ],
            [
              7.9734,
              2.034
            ]
          ]
        ]
      }
    },
    {
      "type": "Feature",
      "properties": {
        "id": 1029,
        "startid": 13,
        "endid": 14
      },
      "geometry": {
        "type": "MultiLineString",
        "coordinates": [
          [
            [
              7.85,
              2.1574
            ],
            [
              7.6944,
              2.2367
            ]
          ]
        ]
      }
    },
    {
      "type": "Feature",
      "properties": {
        "id": 1030,
        "startid": 14,
        "endid": 13
      },
      "geometry": {
        "type": "MultiLineString",
        "coordinates": [
          [
            [
              7.6944,
              2.2367
            ],
            [
              7.85,
              2.1574
            ]
          ]
        ]
      }
    },
    {
      "type": "Feature",
      "properties": {
        "id": 1031,
        "startid": 15,
        "endid": 16
      },
      "geometry": {
        "type": "MultiLineString",
        "coordinates": [
          [
            [
              5.84,
              -1.661
            ],
            [
              5.84,
              -0.686
            ]
          ]
        ]
      }
    },
    {
      "type": "Feature",
      "properties": {
        "id": 1032,
        "startid": 16,
        "endid": 15
      },
      "geometry": {
        "type": "MultiLineString",
        "coordinates": [
          [
            [
              5.84,
              -0.686
            ],
            [
              5.84,
              -1.661
            ]
          ]
        ]
      }
    },
    {
      "type": "Feature",
      "properties": {
        "id": 1033,
        "startid": 16,
        "endid": 17
      },
      "geometry": {
        "type": "MultiLineString",
        "coordinates": [
          [
            [
              5.84,
              -0.686
            ],
            [
              5.84,
              0.289
            ]
          ]
        ]
      }
    },
    {
      "type": "Feature",
      "properties": {
        "id": 1034,
        "startid": 17,
        "endid": 16
      },
      "geometry": {
        "type": "MultiLineString",
        "coordinates": [
          [
            [
              5.84,
              0.289
            ],
            [
              5.84,
              -0.686
            ]
          ]
        ]
      }
    },
    {
      "type": "Feature",
      "properties": {
        "id": 1035,
        "startid": 18,
        "endid": 19
      },
      "geometry": {
        "type": "MultiLineString",
        "coordinates": [
          [
            [
              8.08,
              -1.7676
            ],
            [
              8.08,
              -0.8992
            ]
          ]
        ]
      }
    },
    {
      "type": "Feature",
      "properties": {
        "id": 1036,
        "startid": 19,
        "endid": 18
      },
      "geometry": {
        "type": "MultiLineString",
        "coordinates": [
          [
            [
              8.08,
              -0.8992
            ],
            [
              8.08,
              -1.7676
            ]
          ]
        ]
      }
    },
    {
      "type": "Feature",
      "properties": {
        "id": 1037,
        "startid": 19,
        "endid": 20
      },
      "geometry": {
        "type": "MultiLineString",
        "coordinates": [
          [
            [
              8.08,
              -0.8992
            ],
            [
              8.08,
              -0.0308
            ]
          ]
        ]
      }
    },
    {
      "type": "Feature",
      "properties": {
        "id": 1038,
        "startid": 20,
        "endid": 19
      },
      "geometry": {
        "type": "MultiLineString",
        "coordinates": [
          [
            [
              8.08,
              -0.0308
            ],
            [
              8.08,
              -0.8992
            ]
          ]
        ]
      }
    },
    {
      "type": "Feature",
      "properties": {
        "id": 1039,
        "startid": 20,
        "endid": 21
      },
      "geometry": {
        "type": "MultiLineString",
        "coordinates": [
          [
            [
              8.08,
              -0.0308
            ],
            [
              8.08,
              0.8376
            ]
          ]
        ]
      }
    },
    {
      "type": "Feature",
      "properties": {
        "id": 1040,
        "startid": 21,
        "endid": 20
      },
      "geometry": {
        "type": "MultiLineString",
        "coordinates": [
          [
            [
              8.08,
              0.8376
            ],
            [
              8.08,
              -0.0308
            ]
          ]
        ]
      }
    }
  ]
}