{
  "type": "FeatureCollection",
  "name": "vica_route_graph",
  "crs": {
    "type": "name",
    "properties": {
      "name": "urn:ogc:def:crs:EPSG::3857"
    }
  },
  "features": [
    {
      "type": "Feature",
      "properties": {
        "id": 1,
        "frame": "map"
      },
      "geometry": {
        "type": "Point",
        "coordinates": [
          45.05,
          -0.7
        ]
      }
    },
    {
      "type": "Feature",
      "properties": {
        "id": 2,
        "frame": "map"
      },
      "geometry": {
        "type": "Point",
        "coordinates": [
          44.1621,
          -0.7247
        ]
      }
    },
    {
      "type": "Feature",
      "properties": {
        "id": 3,
        "frame": "map"
      },
      "geometry": {
        "type": "Point",
        "coordinates": [
          43.2743,
          -0.7493
        ]
      }
    },
    {
      "type": "Feature",
      "properties": {
        "id": 4,
        "frame": "map"
      },
      "geometry": {
        "type": "Point",
        "coordinates": [
          42.3864,
          -0.774
        ]
      }
    },
    {
      "type": "Feature",
      "properties": {
        "id": 5,
        "frame": "map"
      },
      "geometry": {
        "type": "Point",
        "coordinates": [
          41.4986,
          -0.7987
        ]
      }
    },
    {
      "type": "Feature",
      "properties": {
        "id": 6,
        "frame": "map"
      },
      "geometry": {
        "type": "Point",
        "coordinates": [
          40.6107,
          -0.8233
        ]
      }
    },
    {
      "type": "Feature",
      "properties": {
        "id": 7,
        "frame": "map"
      },
      "geometry": {
        "type": "Point",
        "coordinates": [
          39.65,
          -0.85
        ]
      }
    },
    {
      "type": "Feature",
      "properties": {
        "id": 8,
        "frame": "map"
      },
      "geometry": {
        "type": "Point",
        "coordinates": [
          38.6892,
          -0.8279
        ]
      }
    },
    {
      "type": "Feature",
      "properties": {
        "id": 9,
        "frame": "map"
      },
      "geometry": {
        "type": "Point",
        "coordinates": [
          37.6909,
          -0.8049
        ]
      }
    },
    {
      "type": "Feature",
      "properties": {
        "id": 10,
        "frame": "map"
      },
      "geometry": {
        "type": "Point",
        "coordinates": [
          36.6926,
          -0.7819
        ]
      }
    },
    {
      "type": "Feature",
      "properties": {
        "id": 11,
        "frame": "map"
      },
      "geometry": {
        "type": "Point",
        "coordinates": [
          35.6943,
          -0.7589
        ]
      }
    },
    {
      "type": "Feature",
      "properties": {
        "id": 12,
        "frame": "map"
      },
      "geometry": {
        "type": "Point",
        "coordinates": [
          34.6959,
          -0.7359
        ]
      }
    },
    {
      "type": "Feature",
      "properties": {
        "id": 13,
        "frame": "map"
      },
      "geometry": {
        "type": "Point",
        "coordinates": [
          33.6976,
          -0.7129
        ]
      }
    },
    {
      "type": "Feature",
      "properties": {
        "id": 14,
        "frame": "map"
      },
      "geometry": {
        "type": "Point",
        "coordinates": [
          32.6993,
          -0.6899
        ]
      }
    },
    {
      "type": "Feature",
      "properties": {
        "id": 15,
        "frame": "map"
      },
      "geometry": {
        "type": "Point",
        "coordinates": [
          31.701,
          -0.6669
        ]
      }
    },
    {
      "type": "Feature",
      "properties": {
        "id": 16,
        "frame": "map"
      },
      "geometry": {
        "type": "Point",
        "coordinates": [
          30.7027,
          -0.6439
        ]
      }
    },
    {
      "type": "Feature",
      "properties": {
        "id": 17,
        "frame": "map"
      },
      "geometry": {
        "type": "Point",
        "coordinates": [
          29.7044,
          -0.6209
        ]
      }
    },
    {
      "type": "Feature",
      "properties": {
        "id": 18,
        "frame": "map"
      },
      "geometry": {
        "type": "Point",
        "coordinates": [
          28.7061,
          -0.5979
        ]
      }
    },
    {
      "type": "Feature",
      "properties": {
        "id": 19,
        "frame": "map"
      },
      "geometry": {
        "type": "Point",
        "coordinates": [
          27.7078,
          -0.5749
        ]
      }
    },
    {
      "type": "Feature",
      "properties": {
        "id": 20,
        "frame": "map"
      },
      "geometry": {
        "type": "Point",
        "coordinates": [
          26.7095,
          -0.5519
        ]
      }
    },
    {
      "type": "Feature",
      "properties": {
        "id": 21,
        "frame": "map"
      },
      "geometry": {
        "type": "Point",
        "coordinates": [
          25.7111,
          -0.5289
        ]
      }
    },
    {
      "type": "Feature",
      "properties": {
        "id": 22,
        "frame": "map"
      },
      "geometry": {
        "type": "Point",
        "coordinates": [
          24.7128,
          -0.5059
        ]
      }
    },
    {
      "type": "Feature",
      "properties": {
        "id": 23,
        "frame": "map"
      },
      "geometry": {
        "type": "Point",
        "coordinates": [
          23.7145,
          -0.4829
        ]
      }
    },
    {
      "type": "Feature",
      "properties": {
        "id": 24,
        "frame": "map"
      },
      "geometry": {
        "type": "Point",
        "coordinates": [
          22.7162,
          -0.4599
        ]
      }
    },
    {
      "type": "Feature",
      "properties": {
        "id": 25,
        "frame": "map"
      },
      "geometry": {
        "type": "Point",
        "coordinates": [
          21.7179,
          -0.4369
        ]
      }
    },
    {
      "type": "Feature",
      "properties": {
        "id": 26,
        "frame": "map"
      },
      "geometry": {
        "type": "Point",
        "coordinates": [
          20.7196,
          -0.4139
        ]
      }
    },
    {
      "type": "Feature",
      "properties": {
        "id": 27,
        "frame": "map"
      },
      "geometry": {
        "type": "Point",
        "coordinates": [
          19.7213,
          -0.3909
        ]
      }
    },
    {
      "type": "Feature",
      "properties": {
        "id": 28,
        "frame": "map"
      },
      "geometry": {
        "type": "Point",
        "coordinates": [
          18.723,
          -0.3679
        ]
      }
    },
    {
      "type": "Feature",
      "properties": {
        "id": 29,
        "frame": "map"
      },
      "geometry": {
        "type": "Point",
        "coordinates": [
          17.7247,
          -0.3449
        ]
      }
    },
    {
      "type": "Feature",
      "properties": {
        "id": 30,
        "frame": "map"
      },
      "geometry": {
        "type": "Point",
        "coordinates": [
          16.7263,
          -0.3219
        ]
      }
    },
    {
      "type": "Feature",
      "properties": {
        "id": 31,
        "frame": "map"
      },
      "geometry": {
        "type": "Point",
        "coordinates": [
          15.728,
          -0.299
        ]
      }
    },
    {
      "type": "Feature",
      "properties": {
        "id": 32,
        "frame": "map"
      },
      "geometry": {
        "type": "Point",
        "coordinates": [
          14.7297,
          -0.276
        ]
      }
    },
    {
      "type": "Feature",
      "properties": {
        "id": 33,
        "frame": "map"
      },
      "geometry": {
        "type": "Point",
        "coordinates": [
          13.7314,
          -0.253
        ]
      }
    },
    {
      "type": "Feature",
      "properties": {
        "id": 34,
        "frame": "map"
      },
      "geometry": {
        "type": "Point",
        "coordinates": [
          12.7331,
          -0.23
        ]
      }
    },
    {
      "type": "Feature",
      "properties": {
        "id": 35,
        "frame": "map"
      },
      "geometry": {
        "type": "Point",
        "coordinates": [
          11.7348,
          -0.207
        ]
      }
    },
    {
      "type": "Feature",
      "properties": {
        "id": 36,
        "frame": "map"
      },
      "geometry": {
        "type": "Point",
        "coordinates": [
          10.7365,
          -0.184
        ]
      }
    },
    {
      "type": "Feature",
      "properties": {
        "id": 37,
        "frame": "map"
      },
      "geometry": {
        "type": "Point",
        "coordinates": [
          9.7382,
          -0.161
        ]
      }
    },
    {
      "type": "Feature",
      "properties": {
        "id": 38,
        "frame": "map"
      },
      "geometry": {
        "type": "Point",
        "coordinates": [
          8.7399,
          -0.138
        ]
      }
    },
    {
      "type": "Feature",
      "properties": {
        "id": 39,
        "frame": "map"
      },
      "geometry": {
        "type": "Point",
        "coordinates": [
          7.7416,
          -0.115
        ]
      }
    },
    {
      "type": "Feature",
      "properties": {
        "id": 40,
        "frame": "map"
      },
      "geometry": {
        "type": "Point",
        "coordinates": [
          6.7432,
          -0.092
        ]
      }
    },
    {
      "type": "Feature",
      "properties": {
        "id": 41,
        "frame": "map"
      },
      "geometry": {
        "type": "Point",
        "coordinates": [
          5.7449,
          -0.069
        ]
      }
    },
    {
      "type": "Feature",
      "properties": {
        "id": 42,
        "frame": "map"
      },
      "geometry": {
        "type": "Point",
        "coordinates": [
          4.7466,
          -0.046
        ]
      }
    },
    {
      "type": "Feature",
      "properties": {
        "id": 43,
        "frame": "map"
      },
      "geometry": {
        "type": "Point",
        "coordinates": [
          3.7483,
          -0.023
        ]
      }
    },
    {
      "type": "Feature",
      "properties": {
        "id": 44,
        "frame": "map"
      },
      "geometry": {
        "type": "Point",
        "coordinates": [
          2.75,
          0.0
        ]
      }
    },
    {
      "type": "Feature",
      "properties": {
        "id": 45,
        "frame": "map"
      },
      "geometry": {
        "type": "Point",
        "coordinates": [
          39.666,
          -1.8109
        ]
      }
    },
    {
      "type": "Feature",
      "properties": {
        "id": 46,
        "frame": "map"
      },
      "geometry": {
        "type": "Point",
        "coordinates": [
          39.68,
          -2.6508
        ]
      }
    },
    {
      "type": "Feature",
      "properties": {
        "id": 47,
        "frame": "map"
      },
      "geometry": {
        "type": "Point",
        "coordinates": [
          39.694,
          -3.4906
        ]
      }
    },
    {
      "type": "Feature",
      "properties": {
        "id": 48,
        "frame": "map"
      },
      "geometry": {
        "type": "Point",
        "coordinates": [
          39.708,
          -4.3305
        ]
      }
    },
    {
      "type": "Feature",
      "properties": {
        "id": 49,
        "frame": "map"
      },
      "geometry": {
        "type": "Point",
        "coordinates": [
          39.722,
          -5.1703
        ]
      }
    },
    {
      "type": "Feature",
      "properties": {
        "id": 50,
        "frame": "map"
      },
      "geometry": {
        "type": "Point",
        "coordinates": [
          39.736,
          -6.0102
        ]
      }
    },
    {
      "type": "Feature",
      "properties": {
        "id": 51,
        "frame": "map"
      },
      "geometry": {
        "type": "Point",
        "coordinates": [
          39.75,
          -6.85
        ]
      }
    },
    {
      "type": "Feature",
      "properties": {
        "id": 52,
        "frame": "map"
      },
      "geometry": {
        "type": "Point",
        "coordinates": [
          40.3139,
          -0.8785
        ]
      }
    },
    {
      "type": "Feature",
      "properties": {
        "id": 53,
        "frame": "map"
      },
      "geometry": {
        "type": "Point",
        "coordinates": [
          40.0483,
          -1.0221
        ]
      }
    },
    {
      "type": "Feature",
      "properties": {
        "id": 54,
        "frame": "map"
      },
      "geometry": {
        "type": "Point",
        "coordinates": [
          39.8396,
          -1.2403
        ]
      }
    },
    {
      "type": "Feature",
      "properties": {
        "id": 55,
        "frame": "map"
      },
      "geometry": {
        "type": "Point",
        "coordinates": [
          39.7079,
          -1.5119
        ]
      }
    },
    {
      "type": "Feature",
      "properties": {
        "id": 56,
        "frame": "map"
      },
      "geometry": {
        "type": "Point",
        "coordinates": [
          38.9895,
          -0.8813
        ]
      }
    },
    {
      "type": "Feature",
      "properties": {
        "id": 57,
        "frame": "map"
      },
      "geometry": {
        "type": "Point",
        "coordinates": [
          39.2597,
          -1.0228
        ]
      }
    },
    {
      "type": "Feature",
      "properties": {
        "id": 58,
        "frame": "map"
      },
      "geometry": {
        "type": "Point",
        "coordinates": [
          39.4747,
          -1.2392
        ]
      }
    },
    {
      "type": "Feature",
      "properties": {
        "id": 59,
        "frame": "map"
      },
      "geometry": {
        "type": "Point",
        "coordinates": [
          39.6145,
          -1.5103
        ]
      }
    },
    {
      "type": "Feature",
      "properties": {
        "id": 1001,
        "startid": 1,
        "endid": 2
      },
      "geometry": {
        "type": "MultiLineString",
        "coordinates": [
          [
            [
              45.05,
              -0.7
            ],
            [
              44.1621,
              -0.7247
            ]
          ]
        ]
      }
    },
    {
      "type": "Feature",
      "properties": {
        "id": 1002,
        "startid": 2,
        "endid": 1
      },
      "geometry": {
        "type": "MultiLineString",
        "coordinates": [
          [
            [
              44.1621,
              -0.7247
            ],
            [
              45.05,
              -0.7
            ]
          ]
        ]
      }
    },
    {
      "type": "Feature",
      "properties": {
        "id": 1003,
        "startid": 2,
        "endid": 3
      },
      "geometry": {
        "type": "MultiLineString",
        "coordinates": [
          [
            [
              44.1621,
              -0.7247
            ],
            [
              43.2743,
              -0.7493
            ]
          ]
        ]
      }
    },
    {
      "type": "Feature",
      "properties": {
        "id": 1004,
        "startid": 3,
        "endid": 2
      },
      "geometry": {
        "type": "MultiLineString",
        "coordinates": [
          [
            [
              43.2743,
              -0.7493
            ],
            [
              44.1621,
              -0.7247
            ]
          ]
        ]
      }
    },
    {
      "type": "Feature",
      "properties": {
        "id": 1005,
        "startid": 3,
        "endid": 4
      },
      "geometry": {
        "type": "MultiLineString",
        "coordinates": [
          [
            [
              43.2743,
              -0.7493
            ],
            [
              42.3864,
              -0.774
            ]
          ]
        ]
      }
    },
    {
      "type": "Feature",
      "properties": {
        "id": 1006,
        "startid": 4,
        "endid": 3
      },
      "geometry": {
        "type": "MultiLineString",
        "coordinates": [
          [
            [
              42.3864,
              -0.774
            ],
            [
              43.2743,
              -0.7493
            ]
          ]
        ]
      }
    },
    {
      "type": "Feature",
      "properties": {
        "id": 1007,
        "startid": 4,
        "endid": 5
      },
      "geometry": {
        "type": "MultiLineString",
        "coordinates": [
          [
            [
              42.3864,
              -0.774
            ],
            [
              41.4986,
              -0.7987
            ]
          ]
        ]
      }
    },
    {
      "type": "Feature",
      "properties": {
        "id": 1008,
        "startid": 5,
        "endid": 4
      },
      "geometry": {
        "type": "MultiLineString",
        "coordinates": [
          [
            [
              41.4986,
              -0.7987
            ],
            [
              42.3864,
              -0.774
            ]
          ]
        ]
      }
    },
    {
      "type": "Feature",
      "properties": {
        "id": 1009,
        "startid": 5,
        "endid": 6
      },
      "geometry": {
        "type": "MultiLineString",
        "coordinates": [
          [
            [
              41.4986,
              -0.7987
            ],
            [
              40.6107,
              -0.8233
            ]
          ]
        ]
      }
    },
    {
      "type": "Feature",
      "properties": {
        "id": 1010,
        "startid": 6,
        "endid": 5
      },
      "geometry": {
        "type": "MultiLineString",
        "coordinates": [
          [
            [
              40.6107,
              -0.8233
            ],
            [
              41.4986,
              -0.7987
            ]
          ]
        ]
      }
    },
    {
      "type": "Feature",
      "properties": {
        "id": 1011,
        "startid": 6,
        "endid": 7
      },
      "geometry": {
        "type": "MultiLineString",
        "coordinates": [
          [
            [
              40.6107,
              -0.8233
            ],
            [
              39.65,
              -0.85
            ]
          ]
        ]
      }
    },
    {
      "type": "Feature",
      "properties": {
        "id": 1012,
        "startid": 7,
        "endid": 6
      },
      "geometry": {
        "type": "MultiLineString",
        "coordinates": [
          [
            [
              39.65,
              -0.85
            ],
            [
              40.6107,
              -0.8233
            ]
          ]
        ]
      }
    },
    {
      "type": "Feature",
      "properties": {
        "id": 1013,
        "startid": 7,
        "endid": 8
      },
      "geometry": {
        "type": "MultiLineString",
        "coordinates": [
          [
            [
              39.65,
              -0.85
            ],
            [
              38.6892,
              -0.8279
            ]
          ]
        ]
      }
    },
    {
      "type": "Feature",
      "properties": {
        "id": 1014,
        "startid": 8,
        "endid": 7
      },
      "geometry": {
        "type": "MultiLineString",
        "coordinates": [
          [
            [
              38.6892,
              -0.8279
            ],
            [
              39.65,
              -0.85
            ]
          ]
        ]
      }
    },
    {
      "type": "Feature",
      "properties": {
        "id": 1015,
        "startid": 8,
        "endid": 9
      },
      "geometry": {
        "type": "MultiLineString",
        "coordinates": [
          [
            [
              38.6892,
              -0.8279
            ],
            [
              37.6909,
              -0.8049
            ]
          ]
        ]
      }
    },
    {
      "type": "Feature",
      "properties": {
        "id": 1016,
        "startid": 9,
        "endid": 8
      },
      "geometry": {
        "type": "MultiLineString",
        "coordinates": [
          [
            [
              37.6909,
              -0.8049
            ],
            [
              38.6892,
              -0.8279
            ]
          ]
        ]
      }
    },
    {
      "type": "Feature",
      "properties": {
        "id": 1017,
        "startid": 9,
        "endid": 10
      },
      "geometry": {
        "type": "MultiLineString",
        "coordinates": [
          [
            [
              37.6909,
              -0.8049
            ],
            [
              36.6926,
              -0.7819
            ]
          ]
        ]
      }
    },
    {
      "type": "Feature",
      "properties": {
        "id": 1018,
        "startid": 10,
        "endid": 9
      },
      "geometry": {
        "type": "MultiLineString",
        "coordinates": [
          [
            [
              36.6926,
              -0.7819
            ],
            [
              37.6909,
              -0.8049
            ]
          ]
        ]
      }
    },
    {
      "type": "Feature",
      "properties": {
        "id": 1019,
        "startid": 10,
        "endid": 11
      },
      "geometry": {
        "type": "MultiLineString",
        "coordinates": [
          [
            [
              36.6926,
              -0.7819
            ],
            [
              35.6943,
              -0.7589
            ]
          ]
        ]
      }
    },
    {
      "type": "Feature",
      "properties": {
        "id": 1020,
        "startid": 11,
        "endid": 10
      },
      "geometry": {
        "type": "MultiLineString",
        "coordinates": [
          [
            [
              35.6943,
              -0.7589
            ],
            [
              36.6926,
              -0.7819
            ]
          ]
        ]
      }
    },
    {
      "type": "Feature",
      "properties": {
        "id": 1021,
        "startid": 11,
        "endid": 12
      },
      "geometry": {
        "type": "MultiLineString",
        "coordinates": [
          [
            [
              35.6943,
              -0.7589
            ],
            [
              34.6959,
              -0.7359
            ]
          ]
        ]
      }
    },
    {
      "type": "Feature",
      "properties": {
        "id": 1022,
        "startid": 12,
        "endid": 11
      },
      "geometry": {
        "type": "MultiLineString",
        "coordinates": [
          [
            [
              34.6959,
              -0.7359
            ],
            [
              35.6943,
              -0.7589
            ]
          ]
        ]
      }
    },
    {
      "type": "Feature",
      "properties": {
        "id": 1023,
        "startid": 12,
        "endid": 13
      },
      "geometry": {
        "type": "MultiLineString",
        "coordinates": [
          [
            [
              34.6959,
              -0.7359
            ],
            [
              33.6976,
              -0.7129
            ]
          ]
        ]
      }
    },
    {
      "type": "Feature",
      "properties": {
        "id": 1024,
        "startid": 13,
        "endid": 12
      },
      "geometry": {
        "type": "MultiLineString",
        "coordinates": [
          [
            [
              33.6976,
              -0.7129
            ],
            [
              34.6959,
              -0.7359
            ]
          ]
        ]
      }
    },
    {
      "type": "Feature",
      "properties": {
        "id": 1025,
        "startid": 13,
        "endid": 14
      },
      "geometry": {
        "type": "MultiLineString",
        "coordinates": [
          [
            [
              33.6976,
              -0.7129
            ],
            [
              32.6993,
              -0.6899
            ]
          ]
        ]
      }
    },
    {
      "type": "Feature",
      "properties": {
        "id": 1026,
        "startid": 14,
        "endid": 13
      },
      "geometry": {
        "type": "MultiLineString",
        "coordinates": [
          [
            [
              32.6993,
              -0.6899
            ],
            [
              33.6976,
              -0.7129
            ]
          ]
        ]
      }
    },
    {
      "type": "Feature",
      "properties": {
        "id": 1027,
        "startid": 14,
        "endid": 15
      },
      "geometry": {
        "type": "MultiLineString",
        "coordinates": [
          [
            [
              32.6993,
              -0.6899
            ],
            [
              31.701,
              -0.6669
            ]
          ]
        ]
      }
    },
    {
      "type": "Feature",
      "properties": {
        "id": 1028,
        "startid": 15,
        "endid": 14
      },
      "geometry": {
        "type": "MultiLineString",
        "coordinates": [
          [
            [
              31.701,
              -0.6669
            ],
            [
              32.6993,
              -0.6899
            ]
          ]
        ]
      }
    },
    {
      "type": "Feature",
      "properties": {
        "id": 1029,
        "startid": 15,
        "endid": 16
      },
      "geometry": {
        "type": "MultiLineString",
        "coordinates": [
          [
            [
              31.701,
              -0.6669
            ],
            [
              30.7027,
              -0.6439
            ]
          ]
        ]
      }
    },
    {
      "type": "Feature",
      "properties": {
        "id": 1030,
        "startid": 16,
        "endid": 15
      },
      "geometry": {
        "type": "MultiLineString",
        "coordinates": [
          [
            [
              30.7027,
              -0.6439
            ],
            [
              31.701,
              -0.6669
            ]
          ]
        ]
      }
    },
    {
      "type": "Feature",
      "properties": {
        "id": 1031,
        "startid": 16,
        "endid": 17
      },
      "geometry": {
        "type": "MultiLineString",
        "coordinates": [
          [
            [
              30.7027,
              -0.6439
            ],
            [
              29.7044,
              -0.6209
            ]
          ]
        ]
      }
    },
    {
      "type": "Feature",
      "properties": {
        "id": 1032,
        "startid": 17,
        "endid": 16
      },
      "geometry": {
        "type": "MultiLineString",
        "coordinates": [
          [
            [
              29.7044,
              -0.6209
            ],
            [
              30.7027,
              -0.6439
            ]
          ]
        ]
      }
    },
    {
      "type": "Feature",
      "properties": {
        "id": 1033,
        "startid": 17,
        "endid": 18
      },
      "geometry": {
        "type": "MultiLineString",
        "coordinates": [
          [
            [
              29.7044,
              -0.6209
            ],
            [
              28.7061,
              -0.5979
            ]
          ]
        ]
      }
    },
    {
      "type": "Feature",
      "properties": {
        "id": 1034,
        "startid": 18,
        "endid": 17
      },
      "geometry": {
        "type": "MultiLineString",
        "coordinates": [
          [
            [
              28.7061,
              -0.5979
            ],
            [
              29.7044,
              -0.6209
            ]
          ]
        ]
      }
    },
    {
      "type": "Feature",
      "properties": {
        "id": 1035,
        "startid": 18,
        "endid": 19
      },
      "geometry": {
        "type": "MultiLineString",
        "coordinates": [
          [
            [
              28.7061,
              -0.5979
            ],
            [
              27.7078,
              -0.5749
            ]
          ]
        ]
      }
    },
    {
      "type": "Feature",
      "properties": {
        "id": 1036,
        "startid": 19,
        "endid": 18
      },
      "geometry": {
        "type": "MultiLineString",
        "coordinates": [
          [
            [
              27.7078,
              -0.5749
            ],
            [
              28.7061,
              -0.5979
            ]
          ]
        ]
      }
    },
    {
      "type": "Feature",
      "properties": {
        "id": 1037,
        "startid": 19,
        "endid": 20
      },
      "geometry": {
        "type": "MultiLineString",
        "coordinates": [
          [
            [
              27.7078,
              -0.5749
            ],
            [
              26.7095,
              -0.5519
            ]
          ]
        ]
      }
    },
    {
      "type": "Feature",
      "properties": {
        "id": 1038,
        "startid": 20,
        "endid": 19
      },
      "geometry": {
        "type": "MultiLineString",
        "coordinates": [
          [
            [
              26.7095,
              -0.5519
            ],
            [
              27.7078,
              -0.5749
            ]
          ]
        ]
      }
    },
    {
      "type": "Feature",
      "properties": {
        "id": 1039,
        "startid": 20,
        "endid": 21
      },
      "geometry": {
        "type": "MultiLineString",
        "coordinates": [
          [
            [
              26.7095,
              -0.5519
            ],
            [
              25.7111,
              -0.5289
            ]
          ]
        ]
      }
    },
    {
      "type": "Feature",
      "properties": {
        "id": 1040,
        "startid": 21,
        "endid": 20
      },
      "geometry": {
        "type": "MultiLineString",
        "coordinates": [
          [
            [
              25.7111,
              -0.5289
            ],
            [
              26.7095,
              -0.5519
            ]
          ]
        ]
      }
    },
    {
      "type": "Feature",
      "properties": {
        "id": 1041,
        "startid": 21,
        "endid": 22
      },
      "geometry": {
        "type": "MultiLineString",
        "coordinates": [
          [
            [
              25.7111,
              -0.5289
            ],
            [
              24.7128,
              -0.5059
            ]
          ]
        ]
      }
    },
    {
      "type": "Feature",
      "properties": {
        "id": 1042,
        "startid": 22,
        "endid": 21
      },
      "geometry": {
        "type": "MultiLineString",
        "coordinates": [
          [
            [
              24.7128,
              -0.5059
            ],
            [
              25.7111,
              -0.5289
            ]
          ]
        ]
      }
    },
    {
      "type": "Feature",
      "properties": {
        "id": 1043,
        "startid": 22,
        "endid": 23
      },
      "geometry": {
        "type": "MultiLineString",
        "coordinates": [
          [
            [
              24.7128,
              -0.5059
            ],
            [
              23.7145,
              -0.4829
            ]
          ]
        ]
      }
    },
    {
      "type": "Feature",
      "properties": {
        "id": 1044,
        "startid": 23,
        "endid": 22
      },
      "geometry": {
        "type": "MultiLineString",
        "coordinates": [
          [
            [
              23.7145,
              -0.4829
            ],
            [
              24.7128,
              -0.5059
            ]
          ]
        ]
      }
    },
    {
      "type": "Feature",
      "properties": {
        "id": 1045,
        "startid": 23,
        "endid": 24
      },
      "geometry": {
        "type": "MultiLineString",
        "coordinates": [
          [
            [
              23.7145,
              -0.4829
            ],
            [
              22.7162,
              -0.4599
            ]
          ]
        ]
      }
    },
    {
      "type": "Feature",
      "properties": {
        "id": 1046,
        "startid": 24,
        "endid": 23
      },
      "geometry": {
        "type": "MultiLineString",
        "coordinates": [
          [
            [
              22.7162,
              -0.4599
            ],
            [
              23.7145,
              -0.4829
            ]
          ]
        ]
      }
    },
    {
      "type": "Feature",
      "properties": {
        "id": 1047,
        "startid": 24,
        "endid": 25
      },
      "geometry": {
        "type": "MultiLineString",
        "coordinates": [
          [
            [
              22.7162,
              -0.4599
            ],
            [
              21.7179,
              -0.4369
            ]
          ]
        ]
      }
    },
    {
      "type": "Feature",
      "properties": {
        "id": 1048,
        "startid": 25,
        "endid": 24
      },
      "geometry": {
        "type": "MultiLineString",
        "coordinates": [
          [
            [
              21.7179,
              -0.4369
            ],
            [
              22.7162,
              -0.4599
            ]
          ]
        ]
      }
    },
    {
      "type": "Feature",
      "properties": {
        "id": 1049,
        "startid": 25,
        "endid": 26
      },
      "geometry": {
        "type": "MultiLineString",
        "coordinates": [
          [
            [
              21.7179,
              -0.4369
            ],
            [
              20.7196,
              -0.4139
            ]
          ]
        ]
      }
    },
    {
      "type": "Feature",
      "properties": {
        "id": 1050,
        "startid": 26,
        "endid": 25
      },
      "geometry": {
        "type": "MultiLineString",
        "coordinates": [
          [
            [
              20.7196,
              -0.4139
            ],
            [
              21.7179,
              -0.4369
            ]
          ]
        ]
      }
    },
    {
      "type": "Feature",
      "properties": {
        "id": 1051,
        "startid": 26,
        "endid": 27
      },
      "geometry": {
        "type": "MultiLineString",
        "coordinates": [
          [
            [
              20.7196,
              -0.4139
            ],
            [
              19.7213,
              -0.3909
            ]
          ]
        ]
      }
    },
    {
      "type": "Feature",
      "properties": {
        "id": 1052,
        "startid": 27,
        "endid": 26
      },
      "geometry": {
        "type": "MultiLineString",
        "coordinates": [
          [
            [
              19.7213,
              -0.3909
            ],
            [
              20.7196,
              -0.4139
            ]
          ]
        ]
      }
    },
    {
      "type": "Feature",
      "properties": {
        "id": 1053,
        "startid": 27,
        "endid": 28
      },
      "geometry": {
        "type": "MultiLineString",
        "coordinates": [
          [
            [
              19.7213,
              -0.3909
            ],
            [
              18.723,
              -0.3679
            ]
          ]
        ]
      }
    },
    {
      "type": "Feature",
      "properties": {
        "id": 1054,
        "startid": 28,
        "endid": 27
      },
      "geometry": {
        "type": "MultiLineString",
        "coordinates": [
          [
            [
              18.723,
              -0.3679
            ],
            [
              19.7213,
              -0.3909
            ]
          ]
        ]
      }
    },
    {
      "type": "Feature",
      "properties": {
        "id": 1055,
        "startid": 28,
        "endid": 29
      },
      "geometry": {
        "type": "MultiLineString",
        "coordinates": [
          [
            [
              18.723,
              -0.3679
            ],
            [
              17.7247,
              -0.3449
            ]
          ]
        ]
      }
    },
    {
      "type": "Feature",
      "properties": {
        "id": 1056,
        "startid": 29,
        "endid": 28
      },
      "geometry": {
        "type": "MultiLineString",
        "coordinates": [
          [
            [
              17.7247,
              -0.3449
            ],
            [
              18.723,
              -0.3679
            ]
          ]
        ]
      }
    },
    {
      "type": "Feature",
      "properties": {
        "id": 1057,
        "startid": 29,
        "endid": 30
      },
      "geometry": {
        "type": "MultiLineString",
        "coordinates": [
          [
            [
              17.7247,
              -0.3449
            ],
            [
              16.7263,
              -0.3219
            ]
          ]
        ]
      }
    },
    {
      "type": "Feature",
      "properties": {
        "id": 1058,
        "startid": 30,
        "endid": 29
      },
      "geometry": {
        "type": "MultiLineString",
        "coordinates": [
          [
            [
              16.7263,
              -0.3219
            ],
            [
              17.7247,
              -0.3449
            ]
          ]
        ]
      }
    },
    {
      "type": "Feature",
      "properties": {
        "id": 1059,
        "startid": 30,
        "endid": 31
      },
      "geometry": {
        "type": "MultiLineString",
        "coordinates": [
          [
            [
              16.7263,
              -0.3219
            ],
            [
              15.728,
              -0.299
            ]
          ]
        ]
      }
    },
    {
      "type": "Feature",
      "properties": {
        "id": 1060,
        "startid": 31,
        "endid": 30
      },
      "geometry": {
        "type": "MultiLineString",
        "coordinates": [
          [
            [
              15.728,
              -0.299
            ],
            [
              16.7263,
              -0.3219
            ]
          ]
        ]
      }
    },
    {
      "type": "Feature",
      "properties": {
        "id": 1061,
        "startid": 31,
        "endid": 32
      },
      "geometry": {
        "type": "MultiLineString",
        "coordinates": [
          [
            [
              15.728,
              -0.299
            ],
            [
              14.7297,
              -0.276
            ]
          ]
        ]
      }
    },
    {
      "type": "Feature",
      "properties": {
        "id": 1062,
        "startid": 32,
        "endid": 31
      },
      "geometry": {
        "type": "MultiLineString",
        "coordinates": [
          [
            [
              14.7297,
              -0.276
            ],
            [
              15.728,
              -0.299
            ]
          ]
        ]
      }
    },
    {
      "type": "Feature",
      "properties": {
        "id": 1063,
        "startid": 32,
        "endid": 33
      },
      "geometry": {
        "type": "MultiLineString",
        "coordinates": [
          [
            [
              14.7297,
              -0.276
            ],
            [
              13.7314,
              -0.253
            ]
          ]
        ]
      }
    },
    {
      "type": "Feature",
      "properties": {
        "id": 1064,
        "startid": 33,
        "endid": 32
      },
      "geometry": {
        "type": "MultiLineString",
        "coordinates": [
          [
            [
              13.7314,
              -0.253
            ],
            [
              14.7297,
              -0.276
            ]
          ]
        ]
      }
    },
    {
      "type": "Feature",
      "properties": {
        "id": 1065,
        "startid": 33,
        "endid": 34
      },
      "geometry": {
        "type": "MultiLineString",
        "coordinates": [
          [
            [
              13.7314,
              -0.253
            ],
            [
              12.7331,
              -0.23
            ]
          ]
        ]
      }
    },
    {
      "type": "Feature",
      "properties": {
        "id": 1066,
        "startid": 34,
        "endid": 33
      },
      "geometry": {
        "type": "MultiLineString",
        "coordinates": [
          [
            [
              12.7331,
              -0.23
            ],
            [
              13.7314,
              -0.253
            ]
          ]
        ]
      }
    },
    {
      "type": "Feature",
      "properties": {
        "id": 1067,
        "startid": 34,
        "endid": 35
      },
      "geometry": {
        "type": "MultiLineString",
        "coordinates": [
          [
            [
              12.7331,
              -0.23
            ],
            [
              11.7348,
              -0.207
            ]
          ]
        ]
      }
    },
    {
      "type": "Feature",
      "properties": {
        "id": 1068,
        "startid": 35,
        "endid": 34
      },
      "geometry": {
        "type": "MultiLineString",
        "coordinates": [
          [
            [
              11.7348,
              -0.207
            ],
            [
              12.7331,
              -0.23
            ]
          ]
        ]
      }
    },
    {
      "type": "Feature",
      "properties": {
        "id": 1069,
        "startid": 35,
        "endid": 36
      },
      "geometry": {
        "type": "MultiLineString",
        "coordinates": [
          [
            [
              11.7348,
              -0.207
            ],
            [
              10.7365,
              -0.184
            ]
          ]
        ]
      }
    },
    {
      "type": "Feature",
      "properties": {
        "id": 1070,
        "startid": 36,
        "endid": 35
      },
      "geometry": {
        "type": "MultiLineString",
        "coordinates": [
          [
            [
              10.7365,
              -0.184
            ],
            [
              11.7348,
              -0.207
            ]
          ]
        ]
      }
    },
    {
      "type": "Feature",
      "properties": {
        "id": 1071,
        "startid": 36,
        "endid": 37
      },
      "geometry": {
        "type": "MultiLineString",
        "coordinates": [
          [
            [
              10.7365,
              -0.184
            ],
            [
              9.7382,
              -0.161
            ]
          ]
        ]
      }
    },
    {
      "type": "Feature",
      "properties": {
        "id": 1072,
        "startid": 37,
        "endid": 36
      },
      "geometry": {
        "type": "MultiLineString",
        "coordinates": [
          [
            [
              9.7382,
              -0.161
            ],
            [
              10.7365,
              -0.184
            ]
          ]
        ]
      }
    },
    {
      "type": "Feature",
      "properties": {
        "id": 1073,
        "startid": 37,
        "endid": 38
      },
      "geometry": {
        "type": "MultiLineString",
        "coordinates": [
          [
            [
              9.7382,
              -0.161
            ],
            [
              8.7399,
              -0.138
            ]
          ]
        ]
      }
    },
    {
      "type": "Feature",
      "properties": {
        "id": 1074,
        "startid": 38,
        "endid": 37
      },
      "geometry": {
        "type": "MultiLineString",
        "coordinates": [
          [
            [
              8.7399,
              -0.138
            ],
            [
              9.7382,
              -0.161
            ]
          ]
        ]
      }
    },
    {
      "type": "Feature",
      "properties": {
        "id": 1075,
        "startid": 38,
        "endid": 39
      },
      "geometry": {
        "type": "MultiLineString",
        "coordinates": [
          [
            [
              8.7399,
              -0.138
            ],
            [
              7.7416,
              -0.115
            ]
          ]
        ]
      }
    },
    {
      "type": "Feature",
      "properties": {
        "id": 1076,
        "startid": 39,
        "endid": 38
      },
      "geometry": {
        "type": "MultiLineString",
        "coordinates": [
          [
            [
              7.7416,
              -0.115
            ],
            [
              8.7399,
              -0.138
            ]
          ]
        ]
      }
    },
    {
      "type": "Feature",
      "properties": {
        "id": 1077,
        "startid": 39,
        "endid": 40
      },
      "geometry": {
        "type": "MultiLineString",
        "coordinates": [
          [
            [
              7.7416,
              -0.115
            ],
            [
              6.7432,
              -0.092
            ]
          ]
        ]
      }
    },
    {
      "type": "Feature",
      "properties": {
        "id": 1078,
        "startid": 40,
        "endid": 39
      },
      "geometry": {
        "type": "MultiLineString",
        "coordinates": [
          [
            [
              6.7432,
              -0.092
            ],
            [
              7.7416,
              -0.115
            ]
          ]
        ]
      }
    },
    {
      "type": "Feature",
      "properties": {
        "id": 1079,
        "startid": 40,
        "endid": 41
      },
      "geometry": {
        "type": "MultiLineString",
        "coordinates": [
          [
            [
              6.7432,
              -0.092
            ],
            [
              5.7449,
              -0.069
            ]
          ]
        ]
      }
    },
    {
      "type": "Feature",
      "properties": {
        "id": 1080,
        "startid": 41,
        "endid": 40
      },
      "geometry": {
        "type": "MultiLineString",
        "coordinates": [
          [
            [
              5.7449,
              -0.069
            ],
            [
              6.7432,
              -0.092
            ]
          ]
        ]
      }
    },
    {
      "type": "Feature",
      "properties": {
        "id": 1081,
        "startid": 41,
        "endid": 42
      },
      "geometry": {
        "type": "MultiLineString",
        "coordinates": [
          [
            [
              5.7449,
              -0.069
            ],
            [
              4.7466,
              -0.046
            ]
          ]
        ]
      }
    },
    {
      "type": "Feature",
      "properties": {
        "id": 1082,
        "startid": 42,
        "endid": 41
      },
      "geometry": {
        "type": "MultiLineString",
        "coordinates": [
          [
            [
              4.7466,
              -0.046
            ],
            [
              5.7449,
              -0.069
            ]
          ]
        ]
      }
    },
    {
      "type": "Feature",
      "properties": {
        "id": 1083,
        "startid": 42,
        "endid": 43
      },
      "geometry": {
        "type": "MultiLineString",
        "coordinates": [
          [
            [
              4.7466,
              -0.046
            ],
            [
              3.7483,
              -0.023
            ]
          ]
        ]
      }
    },
    {
      "type": "Feature",
      "properties": {
        "id": 1084,
        "startid": 43,
        "endid": 42
      },
      "geometry": {
        "type": "MultiLineString",
        "coordinates": [
          [
            [
              3.7483,
              -0.023
            ],
            [
              4.7466,
              -0.046
            ]
          ]
        ]
      }
    },
    {
      "type": "Feature",
      "properties": {
        "id": 1085,
        "startid": 43,
        "endid": 44
      },
      "geometry": {
        "type": "MultiLineString",
        "coordinates": [
          [
            [
              3.7483,
              -0.023
            ],
            [
              2.75,
              0.0
            ]
          ]
        ]
      }
    },
    {
      "type": "Feature",
      "properties": {
        "id": 1086,
        "startid": 44,
        "endid": 43
      },
      "geometry": {
        "type": "MultiLineString",
        "coordinates": [
          [
            [
              2.75,
              0.0
            ],
            [
              3.7483,
              -0.023
            ]
          ]
        ]
      }
    },
    {
      "type": "Feature",
      "properties": {
        "id": 1087,
        "startid": 45,
        "endid": 46
      },
      "geometry": {
        "type": "MultiLineString",
        "coordinates": [
          [
            [
              39.666,
              -1.8109
            ],
            [
              39.68,
              -2.6508
            ]
          ]
        ]
      }
    },
    {
      "type": "Feature",
      "properties": {
        "id": 1088,
        "startid": 46,
        "endid": 45
      },
      "geometry": {
        "type": "MultiLineString",
        "coordinates": [
          [
            [
              39.68,
              -2.6508
            ],
            [
              39.666,
              -1.8109
            ]
          ]
        ]
      }
    },
    {
      "type": "Feature",
      "properties": {
        "id": 1089,
        "startid": 46,
        "endid": 47
      },
      "geometry": {
        "type": "MultiLineString",
        "coordinates": [
          [
            [
              39.68,
              -2.6508
            ],
            [
              39.694,
              -3.4906
            ]
          ]
        ]
      }
    },
    {
      "type": "Feature",
      "properties": {
        "id": 1090,
        "startid": 47,
        "endid": 46
      },
      "geometry": {
        "type": "MultiLineString",
        "coordinates": [
          [
            [
              39.694,
              -3.4906
            ],
            [
              39.68,
              -2.6508
            ]
          ]
        ]
      }
    },
    {
      "type": "Feature",
      "properties": {
        "id": 1091,
        "startid": 47,
        "endid": 48
      },
      "geometry": {
        "type": "MultiLineString",
        "coordinates": [
          [
            [
              39.694,
              -3.4906
            ],
            [
              39.708,
              -4.3305
            ]
          ]
        ]
      }
    },
    {
      "type": "Feature",
      "properties": {
        "id": 1092,
        "startid": 48,
        "endid": 47
      },
      "geometry": {
        "type": "MultiLineString",
        "coordinates": [
          [
            [
              39.708,
              -4.3305
            ],
            [
              39.694,
              -3.4906
            ]
          ]
        ]
      }
    },
    {
      "type": "Feature",
      "properties": {
        "id": 1093,
        "startid": 48,
        "endid": 49
      },
      "geometry": {
        "type": "MultiLineString",
        "coordinates": [
          [
            [
              39.708,
              -4.3305
            ],
            [
              39.722,
              -5.1703
            ]
          ]
        ]
      }
    },
    {
      "type": "Feature",
      "properties": {
        "id": 1094,
        "startid": 49,
        "endid": 48
      },
      "geometry": {
        "type": "MultiLineString",
        "coordinates": [
          [
            [
              39.722,
              -5.1703
            ],
            [
              39.708,
              -4.3305
            ]
          ]
        ]
      }
    },
    {
      "type": "Feature",
      "properties": {
        "id": 1095,
        "startid": 49,
        "endid": 50
      },
      "geometry": {
        "type": "MultiLineString",
        "coordinates": [
          [
            [
              39.722,
              -5.1703
            ],
            [
              39.736,
              -6.0102
            ]
          ]
        ]
      }
    },
    {
      "type": "Feature",
      "properties": {
        "id": 1096,
        "startid": 50,
        "endid": 49
      },
      "geometry": {
        "type": "MultiLineString",
        "coordinates": [
          [
            [
              39.736,
              -6.0102
            ],
            [
              39.722,
              -5.1703
            ]
          ]
        ]
      }
    },
    {
      "type": "Feature",
      "properties": {
        "id": 1097,
        "startid": 50,
        "endid": 51
      },
      "geometry": {
        "type": "MultiLineString",
        "coordinates": [
          [
            [
              39.736,
              -6.0102
            ],
            [
              39.75,
              -6.85
            ]
          ]
        ]
      }
    },
    {
      "type": "Feature",
      "properties": {
        "id": 1098,
        "startid": 51,
        "endid": 50
      },
      "geometry": {
        "type": "MultiLineString",
        "coordinates": [
          [
            [
              39.75,
              -6.85
            ],
            [
              39.736,
              -6.0102
            ]
          ]
        ]
      }
    },
    {
      "type": "Feature",
      "properties": {
        "id": 1099,
        "startid": 6,
        "endid": 52
      },
      "geometry": {
        "type": "MultiLineString",
        "coordinates": [
          [
            [
              40.6107,
              -0.8233
            ],
            [
              40.3139,
              -0.8785
            ]
          ]
        ]
      }
    },
    {
      "type": "Feature",
      "properties": {
        "id": 1100,
        "startid": 52,
        "endid": 6
      },
      "geometry": {
        "type": "MultiLineString",
        "coordinates": [
          [
            [
              40.3139,
              -0.8785
            ],
            [
              40.6107,
              -0.8233
            ]
          ]
        ]
      }
    },
    {
      "type": "Feature",
      "properties": {
        "id": 1101,
        "startid": 52,
        "endid": 53
      },
      "geometry": {
        "type": "MultiLineString",
        "coordinates": [
          [
            [
              40.3139,
              -0.8785
            ],
            [
              40.0483,
              -1.0221
            ]
          ]
        ]
      }
    },
    {
      "type": "Feature",
      "properties": {
        "id": 1102,
        "startid": 53,
        "endid": 52
      },
      "geometry": {
        "type": "MultiLineString",
        "coordinates": [
          [
            [
              40.0483,
              -1.0221
            ],
            [
              40.3139,
              -0.8785
            ]
          ]
        ]
      }
    },
    {
      "type": "Feature",
      "properties": {
        "id": 1103,
        "startid": 53,
        "endid": 54
      },
      "geometry": {
        "type": "MultiLineString",
        "coordinates": [
          [
            [
              40.0483,
              -1.0221
            ],
            [
              39.8396,
              -1.2403
            ]
          ]
        ]
      }
    },
    {
      "type": "Feature",
      "properties": {
        "id": 1104,
        "startid": 54,
        "endid": 53
      },
      "geometry": {
        "type": "MultiLineString",
        "coordinates": [
          [
            [
              39.8396,
              -1.2403
            ],
            [
              40.0483,
              -1.0221
            ]
          ]
        ]
      }
    },
    {
      "type": "Feature",
      "properties": {
        "id": 1105,
        "startid": 54,
        "endid": 55
      },
      "geometry": {
        "type": "MultiLineString",
        "coordinates": [
          [
            [
              39.8396,
              -1.2403
            ],
            [
              39.7079,
              -1.5119
            ]
          ]
        ]
      }
    },
    {
      "type": "Feature",
      "properties": {
        "id": 1106,
        "startid": 55,
        "endid": 54
      },
      "geometry": {
        "type": "MultiLineString",
        "coordinates": [
          [
            [
              39.7079,
              -1.5119
            ],
            [
              39.8396,
              -1.2403
            ]
          ]
        ]
      }
    },
    {
      "type": "Feature",
      "properties": {
        "id": 1107,
        "startid": 55,
        "endid": 45
      },
      "geometry": {
        "type": "MultiLineString",
        "coordinates": [
          [
            [
              39.7079,
              -1.5119
            ],
            [
              39.666,
              -1.8109
            ]
          ]
        ]
      }
    },
    {
      "type": "Feature",
      "properties": {
        "id": 1108,
        "startid": 45,
        "endid": 55
      },
      "geometry": {
        "type": "MultiLineString",
        "coordinates": [
          [
            [
              39.666,
              -1.8109
            ],
            [
              39.7079,
              -1.5119
            ]
          ]
        ]
      }
    },
    {
      "type": "Feature",
      "properties": {
        "id": 1109,
        "startid": 8,
        "endid": 56
      },
      "geometry": {
        "type": "MultiLineString",
        "coordinates": [
          [
            [
              38.6892,
              -0.8279
            ],
            [
              38.9895,
              -0.8813
            ]
          ]
        ]
      }
    },
    {
      "type": "Feature",
      "properties": {
        "id": 1110,
        "startid": 56,
        "endid": 8
      },
      "geometry": {
        "type": "MultiLineString",
        "coordinates": [
          [
            [
              38.9895,
              -0.8813
            ],
            [
              38.6892,
              -0.8279
            ]
          ]
        ]
      }
    },
    {
      "type": "Feature",
      "properties": {
        "id": 1111,
        "startid": 56,
        "endid": 57
      },
      "geometry": {
        "type": "MultiLineString",
        "coordinates": [
          [
            [
              38.9895,
              -0.8813
            ],
            [
              39.2597,
              -1.0228
            ]
          ]
        ]
      }
    },
    {
      "type": "Feature",
      "properties": {
        "id": 1112,
        "startid": 57,
        "endid": 56
      },
      "geometry": {
        "type": "MultiLineString",
        "coordinates": [
          [
            [
              39.2597,
              -1.0228
            ],
            [
              38.9895,
              -0.8813
            ]
          ]
        ]
      }
    },
    {
      "type": "Feature",
      "properties": {
        "id": 1113,
        "startid": 57,
        "endid": 58
      },
      "geometry": {
        "type": "MultiLineString",
        "coordinates": [
          [
            [
              39.2597,
              -1.0228
            ],
            [
              39.4747,
              -1.2392
            ]
          ]
        ]
      }
    },
    {
      "type": "Feature",
      "properties": {
        "id": 1114,
        "startid": 58,
        "endid": 57
      },
      "geometry": {
        "type": "MultiLineString",
        "coordinates": [
          [
            [
              39.4747,
              -1.2392
            ],
            [
              39.2597,
              -1.0228
            ]
          ]
        ]
      }
    },
    {
      "type": "Feature",
      "properties": {
        "id": 1115,
        "startid": 58,
        "endid": 59
      },
      "geometry": {
        "type": "MultiLineString",
        "coordinates": [
          [
            [
              39.4747,
              -1.2392
            ],
            [
              39.6145,
              -1.5103
            ]
          ]
        ]
      }
    },
    {
      "type": "Feature",
      "properties": {
        "id": 1116,
        "startid": 59,
        "endid": 58
      },
      "geometry": {
        "type": "MultiLineString",
        "coordinates": [
          [
            [
              39.6145,
              -1.5103
            ],
            [
              39.4747,
              -1.2392
            ]
          ]
        ]
      }
    },
    {
      "type": "Feature",
      "properties": {
        "id": 1117,
        "startid": 59,
        "endid": 45
      },
      "geometry": {
        "type": "MultiLineString",
        "coordinates": [
          [
            [
              39.6145,
              -1.5103
            ],
            [
              39.666,
              -1.8109
            ]
          ]
        ]
      }
    },
    {
      "type": "Feature",
      "properties": {
        "id": 1118,
        "startid": 45,
        "endid": 59
      },
      "geometry": {
        "type": "MultiLineString",
        "coordinates": [
          [
            [
              39.666,
              -1.8109
            ],
            [
              39.6145,
              -1.5103
            ]
          ]
        ]
      }
    }
  ]
}