{
  "type": "FeatureCollection",
  "name": "vica_route_graph",
  "crs": {
    "type": "name",
    "properties": {
      "name": "urn:ogc:def:crs:EPSG::3857"
    }
  },
  "features": [
    {
      "type": "Feature",
      "properties": {
        "id": 1,
        "frame": "map"
      },
      "geometry": {
        "type": "Point",
        "coordinates": [
          -6.05,
          2.41
        ]
      }
    },
    {
      "type": "Feature",
      "properties": {
        "id": 2,
        "frame": "map"
      },
      "geometry": {
        "type": "Point",
        "coordinates": [
          -5.9833,
          1.5933
        ]
      }
    },
    {
      "type": "Feature",
      "properties": {
        "id": 3,
        "frame": "map"
      },
      "geometry": {
        "type": "Point",
        "coordinates": [
          -5.9167,
          0.7767
        ]
      }
    },
    {
      "type": "Feature",
      "properties": {
        "id": 4,
        "frame": "map"
      },
      "geometry": {
        "type": "Point",
        "coordinates": [
          -5.85,
          -0.04
        ]
      }
    },
    {
      "type": "Feature",
      "properties": {
        "id": 5,
        "frame": "map"
      },
      "geometry": {
        "type": "Point",
        "coordinates": [
          -5.3167,
          0.56
        ]
      }
    },
    {
      "type": "Feature",
      "properties": {
        "id": 6,
        "frame": "map"
      },
      "geometry": {
        "type": "Point",
        "coordinates": [
          -4.7833,
          1.16
        ]
      }
    },
    {
      "type": "Feature",
      "properties": {
        "id": 7,
        "frame": "map"
      },
      "geometry": {
        "type": "Point",
        "coordinates": [
          -4.25,
          1.76
        ]
      }
    },
    {
      "type": "Feature",
      "properties": {
        "id": 8,
        "frame": "map"
      },
      "geometry": {
        "type": "Point",
        "coordinates": [
          -3.3,
          1.76
        ]
      }
    },
    {
      "type": "Feature",
      "properties": {
        "id": 9,
        "frame": "map"
      },
      "geometry": {
        "type": "Point",
        "coordinates": [
          -2.675,
          1.21
        ]
      }
    },
    {
      "type": "Feature",
      "properties": {
        "id": 10,
        "frame": "map"
      },
      "geometry": {
        "type": "Point",
        "coordinates": [
          -2.05,
          0.66
        ]
      }
    },
    {
      "type": "Feature",
      "properties": {
        "id": 11,
        "frame": "map"
      },
      "geometry": {
        "type": "Point",
        "coordinates": [
          -1.2667,
          0.66
        ]
      }
    },
    {
      "type": "Feature",
      "properties": {
        "id": 12,
        "frame": "map"
      },
      "geometry": {
        "type": "Point",
        "coordinates": [
          -0.4833,
          0.66
        ]
      }
    },
    {
      "type": "Feature",
      "properties": {
        "id": 13,
        "frame": "map"
      },
      "geometry": {
        "type": "Point",
        "coordinates": [
          0.3,
          0.66
        ]
      }
    },
    {
      "type": "Feature",
      "properties": {
        "id": 14,
        "frame": "map"
      },
      "geometry": {
        "type": "Point",
        "coordinates": [
          1.1125,
          0.785
        ]
      }
    },
    {
      "type": "Feature",
      "properties": {
        "id": 15,
        "frame": "map"
      },
      "geometry": {
        "type": "Point",
        "coordinates": [
          1.925,
          0.91
        ]
      }
    },
    {
      "type": "Feature",
      "properties": {
        "id": 16,
        "frame": "map"
      },
      "geometry": {
        "type": "Point",
        "coordinates": [
          2.7375,
          1.035
        ]
      }
    },
    {
      "type": "Feature",
      "properties": {
        "id": 17,
        "frame": "map"
      },
      "geometry": {
        "type": "Point",
        "coordinates": [
          3.55,
          1.16
        ]
      }
    },
    {
      "type": "Feature",
      "properties": {
        "id": 18,
        "frame": "map"
      },
      "geometry": {
        "type": "Point",
        "coordinates": [
          3.0,
          1.16
        ]
      }
    },
    {
      "type": "Feature",
      "properties": {
        "id": 19,
        "frame": "map"
      },
      "geometry": {
        "type": "Point",
        "coordinates": [
          2.45,
          1.16
        ]
      }
    },
    {
      "type": "Feature",
      "properties": {
        "id": 20,
        "frame": "map"
      },
      "geometry": {
        "type": "Point",
        "coordinates": [
          1.7833,
          1.8933
        ]
      }
    },
    {
      "type": "Feature",
      "properties": {
        "id": 21,
        "frame": "map"
      },
      "geometry": {
        "type": "Point",
        "coordinates": [
          1.1167,
          2.6267
        ]
      }
    },
    {
      "type": "Feature",
      "properties": {
        "id": 22,
        "frame": "map"
      },
      "geometry": {
        "type": "Point",
        "coordinates": [
          0.45,
          3.36
        ]
      }
    },
    {
      "type": "Feature",
      "properties": {
        "id": 23,
        "frame": "map"
      },
      "geometry": {
        "type": "Point",
        "coordinates": [
          1.1,
          4.11
        ]
      }
    },
    {
      "type": "Feature",
      "properties": {
        "id": 24,
        "frame": "map"
      },
      "geometry": {
        "type": "Point",
        "coordinates": [
          1.75,
          4.86
        ]
      }
    },
    {
      "type": "Feature",
      "properties": {
        "id": 25,
        "frame": "map"
      },
      "geometry": {
        "type": "Point",
        "coordinates": [
          2.4,
          4.885
        ]
      }
    },
    {
      "type": "Feature",
      "properties": {
        "id": 26,
        "frame": "map"
      },
      "geometry": {
        "type": "Point",
        "coordinates": [
          3.05,
          4.91
        ]
      }
    },
    {
      "type": "Feature",
      "properties": {
        "id": 27,
        "frame": "map"
      },
      "geometry": {
        "type": "Point",
        "coordinates": [
          3.55,
          5.41
        ]
      }
    },
    {
      "type": "Feature",
      "properties": {
        "id": 28,
        "frame": "map"
      },
      "geometry": {
        "type": "Point",
        "coordinates": [
          2.5929,
          5.4671
        ]
      }
    },
    {
      "type": "Feature",
      "properties": {
        "id": 29,
        "frame": "map"
      },
      "geometry": {
        "type": "Point",
        "coordinates": [
          1.6357,
          5.5243
        ]
      }
    },
    {
      "type": "Feature",
      "properties": {
        "id": 30,
        "frame": "map"
      },
      "geometry": {
        "type": "Point",
        "coordinates": [
          0.6786,
          5.5814
        ]
      }
    },
    {
      "type": "Feature",
      "properties": {
        "id": 31,
        "frame": "map"
      },
      "geometry": {
        "type": "Point",
        "coordinates": [
          -0.2786,
          5.6386
        ]
      }
    },
    {
      "type": "Feature",
      "properties": {
        "id": 32,
        "frame": "map"
      },
      "geometry": {
        "type": "Point",
        "coordinates": [
          -1.2357,
          5.6957
        ]
      }
    },
    {
      "type": "Feature",
      "properties": {
        "id": 33,
        "frame": "map"
      },
      "geometry": {
        "type": "Point",
        "coordinates": [
          -2.1929,
          5.7529
        ]
      }
    },
    {
      "type": "Feature",
      "properties": {
        "id": 34,
        "frame": "map"
      },
      "geometry": {
        "type": "Point",
        "coordinates": [
          -3.15,
          5.81
        ]
      }
    },
    {
      "type": "Feature",
      "properties": {
        "id": 35,
        "frame": "map"
      },
      "geometry": {
        "type": "Point",
        "coordinates": [
          -3.575,
          5.41
        ]
      }
    },
    {
      "type": "Feature",
      "properties": {
        "id": 36,
        "frame": "map"
      },
      "geometry": {
        "type": "Point",
        "coordinates": [
          -4.0,
          5.01
        ]
      }
    },
    {
      "type": "Feature",
      "properties": {
        "id": 37,
        "frame": "map"
      },
      "geometry": {
        "type": "Point",
        "coordinates": [
          -4.1,
          4.16
        ]
      }
    },
    {
      "type": "Feature",
      "properties": {
        "id": 38,
        "frame": "map"
      },
      "geometry": {
        "type": "Point",
        "coordinates": [
          -4.2,
          3.31
        ]
      }
    },
    {
      "type": "Feature",
      "properties": {
        "id": 39,
        "frame": "map"
      },
      "geometry": {
        "type": "Point",
        "coordinates": [
          -5.0,
          3.26
        ]
      }
    },
    {
      "type": "Feature",
      "properties": {
        "id": 40,
        "frame": "map"
      },
      "geometry": {
        "type": "Point",
        "coordinates": [
          -5.8,
          3.21
        ]
      }
    },
    {
      "type": "Feature",
      "properties": {
        "id": 41,
        "frame": "map"
      },
      "geometry": {
        "type": "Point",
        "coordinates": [
          -6.2,
          3.66
        ]
      }
    },
    {
      "type": "Feature",
      "properties": {
        "id": 42,
        "frame": "map"
      },
      "geometry": {
        "type": "Point",
        "coordinates": [
          -6.125,
          3.035
        ]
      }
    },
    {
      "type": "Feature",
      "properties": {
        "id": 1001,
        "startid": 1,
        "endid": 2
      },
      "geometry": {
        "type": "MultiLineString",
        "coordinates": [
          [
            [
              -6.05,
              2.41
            ],
            [
              -5.9833,
              1.5933
            ]
          ]
        ]
      }
    },
    {
      "type": "Feature",
      "properties": {
        "id": 1002,
        "startid": 2,
        "endid": 1
      },
      "geometry": {
        "type": "MultiLineString",
        "coordinates": [
          [
            [
              -5.9833,
              1.5933
            ],
            [
              -6.05,
              2.41
            ]
          ]
        ]
      }
    },
    {
      "type": "Feature",
      "properties": {
        "id": 1003,
        "startid": 2,
        "endid": 3
      },
      "geometry": {
        "type": "MultiLineString",
        "coordinates": [
          [
            [
              -5.9833,
              1.5933
            ],
            [
              -5.9167,
              0.7767
            ]
          ]
        ]
      }
    },
    {
      "type": "Feature",
      "properties": {
        "id": 1004,
        "startid": 3,
        "endid": 2
      },
      "geometry": {
        "type": "MultiLineString",
        "coordinates": [
          [
            [
              -5.9167,
              0.7767
            ],
            [
              -5.9833,
              1.5933
            ]
          ]
        ]
      }
    },
    {
      "type": "Feature",
      "properties": {
        "id": 1005,
        "startid": 3,
        "endid": 4
      },
      "geometry": {
        "type": "MultiLineString",
        "coordinates": [
          [
            [
              -5.9167,
              0.7767
            ],
            [
              -5.85,
              -0.04
            ]
          ]
        ]
      }
    },
    {
      "type": "Feature",
      "properties": {
        "id": 1006,
        "startid": 4,
        "endid": 3
      },
      "geometry": {
        "type": "MultiLineString",
        "coordinates": [
          [
            [
              -5.85,
              -0.04
            ],
            [
              -5.9167,
              0.7767
            ]
          ]
        ]
      }
    },
    {
      "type": "Feature",
      "properties": {
        "id": 1007,
        "startid": 4,
        "endid": 5
      },
      "geometry": {
        "type": "MultiLineString",
        "coordinates": [
          [
            [
              -5.85,
              -0.04
            ],
            [
              -5.3167,
              0.56
            ]
          ]
        ]
      }
    },
    {
      "type": "Feature",
      "properties": {
        "id": 1008,
        "startid": 5,
        "endid": 4
      },
      "geometry": {
        "type": "MultiLineString",
        "coordinates": [
          [
            [
              -5.3167,
              0.56
            ],
            [
              -5.85,
              -0.04
            ]
          ]
        ]
      }
    },
    {
      "type": "Feature",
      "properties": {
        "id": 1009,
        "startid": 5,
        "endid": 6
      },
      "geometry": {
        "type": "MultiLineString",
        "coordinates": [
          [
            [
              -5.3167,
              0.56
            ],
            [
              -4.7833,
              1.16
            ]
          ]
        ]
      }
    },
    {
      "type": "Feature",
      "properties": {
        "id": 1010,
        "startid": 6,
        "endid": 5
      },
      "geometry": {
        "type": "MultiLineString",
        "coordinates": [
          [
            [
              -4.7833,
              1.16
            ],
            [
              -5.3167,
              0.56
            ]
          ]
        ]
      }
    },
    {
      "type": "Feature",
      "properties": {
        "id": 1011,
        "startid": 6,
        "endid": 7
      },
      "geometry": {
        "type": "MultiLineString",
        "coordinates": [
          [
            [
              -4.7833,
              1.16
            ],
            [
              -4.25,
              1.76
            ]
          ]
        ]
      }
    },
    {
      "type": "Feature",
      "properties": {
        "id": 1012,
        "startid": 7,
        "endid": 6
      },
      "geometry": {
        "type": "MultiLineString",
        "coordinates": [
          [
            [
              -4.25,
              1.76
            ],
            [
              -4.7833,
              1.16
            ]
          ]
        ]
      }
    },
    {
      "type": "Feature",
      "properties": {
        "id": 1013,
        "startid": 7,
        "endid": 8
      },
      "geometry": {
        "type": "MultiLineString",
        "coordinates": [
          [
            [
              -4.25,
              1.76
            ],
            [
              -3.3,
              1.76
            ]
          ]
        ]
      }
    },
    {
      "type": "Feature",
      "properties": {
        "id": 1014,
        "startid": 8,
        "endid": 7
      },
      "geometry": {
        "type": "MultiLineString",
        "coordinates": [
          [
            [
              -3.3,
              1.76
            ],
            [
              -4.25,
              1.76
            ]
          ]
        ]
      }
    },
    {
      "type": "Feature",
      "properties": {
        "id": 1015,
        "startid": 8,
        "endid": 9
      },
      "geometry": {
        "type": "MultiLineString",
        "coordinates": [
          [
            [
              -3.3,
              1.76
            ],
            [
              -2.675,
              1.21
            ]
          ]
        ]
      }
    },
    {
      "type": "Feature",
      "properties": {
        "id": 1016,
        "startid": 9,
        "endid": 8
      },
      "geometry": {
        "type": "MultiLineString",
        "coordinates": [
          [
            [
              -2.675,
              1.21
            ],
            [
              -3.3,
              1.76
            ]
          ]
        ]
      }
    },
    {
      "type": "Feature",
      "properties": {
        "id": 1017,
        "startid": 9,
        "endid": 10
      },
      "geometry": {
        "type": "MultiLineString",
        "coordinates": [
          [
            [
              -2.675,
              1.21
            ],
            [
              -2.05,
              0.66
            ]
          ]
        ]
      }
    },
    {
      "type": "Feature",
      "properties": {
        "id": 1018,
        "startid": 10,
        "endid": 9
      },
      "geometry": {
        "type": "MultiLineString",
        "coordinates": [
          [
            [
              -2.05,
              0.66
            ],
            [
              -2.675,
              1.21
            ]
          ]
        ]
      }
    },
    {
      "type": "Feature",
      "properties": {
        "id": 1019,
        "startid": 10,
        "endid": 11
      },
      "geometry": {
        "type": "MultiLineString",
        "coordinates": [
          [
            [
              -2.05,
              0.66
            ],
            [
              -1.2667,
              0.66
            ]
          ]
        ]
      }
    },
    {
      "type": "Feature",
      "properties": {
        "id": 1020,
        "startid": 11,
        "endid": 10
      },
      "geometry": {
        "type": "MultiLineString",
        "coordinates": [
          [
            [
              -1.2667,
              0.66
            ],
            [
              -2.05,
              0.66
            ]
          ]
        ]
      }
    },
    {
      "type": "Feature",
      "properties": {
        "id": 1021,
        "startid": 11,
        "endid": 12
      },
      "geometry": {
        "type": "MultiLineString",
        "coordinates": [
          [
            [
              -1.2667,
              0.66
            ],
            [
              -0.4833,
              0.66
            ]
          ]
        ]
      }
    },
    {
      "type": "Feature",
      "properties": {
        "id": 1022,
        "startid": 12,
        "endid": 11
      },
      "geometry": {
        "type": "MultiLineString",
        "coordinates": [
          [
            [
              -0.4833,
              0.66
            ],
            [
              -1.2667,
              0.66
            ]
          ]
        ]
      }
    },
    {
      "type": "Feature",
      "properties": {
        "id": 1023,
        "startid": 12,
        "endid": 13
      },
      "geometry": {
        "type": "MultiLineString",
        "coordinates": [
          [
            [
              -0.4833,
              0.66
            ],
            [
              0.3,
              0.66
            ]
          ]
        ]
      }
    },
    {
      "type": "Feature",
      "properties": {
        "id": 1024,
        "startid": 13,
        "endid": 12
      },
      "geometry": {
        "type": "MultiLineString",
        "coordinates": [
          [
            [
              0.3,
              0.66
            ],
            [
              -0.4833,
              0.66
            ]
          ]
        ]
      }
    },
    {
      "type": "Feature",
      "properties": {
        "id": 1025,
        "startid": 13,
        "endid": 14
      },
      "geometry": {
        "type": "MultiLineString",
        "coordinates": [
          [
            [
              0.3,
              0.66
            ],
            [
              1.1125,
              0.785
            ]
          ]
        ]
      }
    },
    {
      "type": "Feature",
      "properties": {
        "id": 1026,
        "startid": 14,
        "endid": 13
      },
      "geometry": {
        "type": "MultiLineString",
        "coordinates": [
          [
            [
              1.1125,
              0.785
            ],
            [
              0.3,
              0.66
            ]
          ]
        ]
      }
    },
    {
      "type": "Feature",
      "properties": {
        "id": 1027,
        "startid": 14,
        "endid": 15
      },
      "geometry": {
        "type": "MultiLineString",
        "coordinates": [
          [
            [
              1.1125,
              0.785
            ],
            [
              1.925,
              0.91
            ]
          ]
        ]
      }
    },
    {
      "type": "Feature",
      "properties": {
        "id": 1028,
        "startid": 15,
        "endid": 14
      },
      "geometry": {
        "type": "MultiLineString",
        "coordinates": [
          [
            [
              1.925,
              0.91
            ],
            [
              1.1125,
              0.785
            ]
          ]
        ]
      }
    },
    {
      "type": "Feature",
      "properties": {
        "id": 1029,
        "startid": 15,
        "endid": 16
      },
      "geometry": {
        "type": "MultiLineString",
        "coordinates": [
          [
            [
              1.925,
              0.91
            ],
            [
              2.7375,
              1.035
            ]
          ]
        ]
      }
    },
    {
      "type": "Feature",
      "properties": {
        "id": 1030,
        "startid": 16,
        "endid": 15
      },
      "geometry": {
        "type": "MultiLineString",
        "coordinates": [
          [
            [
              2.7375,
              1.035
            ],
            [
              1.925,
              0.91
            ]
          ]
        ]
      }
    },
    {
      "type": "Feature",
      "properties": {
        "id": 1031,
        "startid": 16,
        "endid": 17
      },
      "geometry": {
        "type": "MultiLineString",
        "coordinates": [
          [
            [
              2.7375,
              1.035
            ],
            [
              3.55,
              1.16
            ]
          ]
        ]
      }
    },
    {
      "type": "Feature",
      "properties": {
        "id": 1032,
        "startid": 17,
        "endid": 16
      },
      "geometry": {
        "type": "MultiLineString",
        "coordinates": [
          [
            [
              3.55,
              1.16
            ],
            [
              2.7375,
              1.035
            ]
          ]
        ]
      }
    },
    {
      "type": "Feature",
      "properties": {
        "id": 1033,
        "startid": 17,
        "endid": 18
      },
      "geometry": {
        "type": "MultiLineString",
        "coordinates": [
          [
            [
              3.55,
              1.16
            ],
            [
              3.0,
              1.16
            ]
          ]
        ]
      }
    },
    {
      "type": "Feature",
      "properties": {
        "id": 1034,
        "startid": 18,
        "endid": 17
      },
      "geometry": {
        "type": "MultiLineString",
        "coordinates": [
          [
            [
              3.0,
              1.16
            ],
            [
              3.55,
              1.16
            ]
          ]
        ]
      }
    },
    {
      "type": "Feature",
      "properties": {
        "id": 1035,
        "startid": 18,
        "endid": 19
      },
      "geometry": {
        "type": "MultiLineString",
        "coordinates": [
          [
            [
              3.0,
              1.16
            ],
            [
              2.45,
              1.16
            ]
          ]
        ]
      }
    },
    {
      "type": "Feature",
      "properties": {
        "id": 1036,
        "startid": 19,
        "endid": 18
      },
      "geometry": {
        "type": "MultiLineString",
        "coordinates": [
          [
            [
              2.45,
              1.16
            ],
            [
              3.0,
              1.16
            ]
          ]
        ]
      }
    },
    {
      "type": "Feature",
      "properties": {
        "id": 1037,
        "startid": 19,
        "endid": 20
      },
      "geometry": {
        "type": "MultiLineString",
        "coordinates": [
          [
            [
              2.45,
              1.16
            ],
            [
              1.7833,
              1.8933
            ]
          ]
        ]
      }
    },
    {
      "type": "Feature",
      "properties": {
        "id": 1038,
        "startid": 20,
        "endid": 19
      },
      "geometry": {
        "type": "MultiLineString",
        "coordinates": [
          [
            [
              1.7833,
              1.8933
            ],
            [
              2.45,
              1.16
            ]
          ]
        ]
      }
    },
    {
      "type": "Feature",
      "properties": {
        "id": 1039,
        "startid": 20,
        "endid": 21
      },
      "geometry": {
        "type": "MultiLineString",
        "coordinates": [
          [
            [
              1.7833,
              1.8933
            ],
            [
              1.1167,
              2.6267
            ]
          ]
        ]
      }
    },
    {
      "type": "Feature",
      "properties": {
        "id": 1040,
        "startid": 21,
        "endid": 20
      },
      "geometry": {
        "type": "MultiLineString",
        "coordinates": [
          [
            [
              1.1167,
              2.6267
            ],
            [
              1.7833,
              1.8933
            ]
          ]
        ]
      }
    },
    {
      "type": "Feature",
      "properties": {
        "id": 1041,
        "startid": 21,
        "endid": 22
      },
      "geometry": {
        "type": "MultiLineString",
        "coordinates": [
          [
            [
              1.1167,
              2.6267
            ],
            [
              0.45,
              3.36
            ]
          ]
        ]
      }
    },
    {
      "type": "Feature",
      "properties": {
        "id": 1042,
        "startid": 22,
        "endid": 21
      },
      "geometry": {
        "type": "MultiLineString",
        "coordinates": [
          [
            [
              0.45,
              3.36
            ],
            [
              1.1167,
              2.6267
            ]
          ]
        ]
      }
    },
    {
      "type": "Feature",
      "properties": {
        "id": 1043,
        "startid": 22,
        "endid": 23
      },
      "geometry": {
        "type": "MultiLineString",
        "coordinates": [
          [
            [
              0.45,
              3.36
            ],
            [
              1.1,
              4.11
            ]
          ]
        ]
      }
    },
    {
      "type": "Feature",
      "properties": {
        "id": 1044,
        "startid": 23,
        "endid": 22
      },
      "geometry": {
        "type": "MultiLineString",
        "coordinates": [
          [
            [
              1.1,
              4.11
            ],
            [
              0.45,
              3.36
            ]
          ]
        ]
      }
    },
    {
      "type": "Feature",
      "properties": {
        "id": 1045,
        "startid": 23,
        "endid": 24
      },
      "geometry": {
        "type": "MultiLineString",
        "coordinates": [
          [
            [
              1.1,
              4.11
            ],
            [
              1.75,
              4.86
            ]
          ]
        ]
      }
    },
    {
      "type": "Feature",
      "properties": {
        "id": 1046,
        "startid": 24,
        "endid": 23
      },
      "geometry": {
        "type": "MultiLineString",
        "coordinates": [
          [
            [
              1.75,
              4.86
            ],
            [
              1.1,
              4.11
            ]
          ]
        ]
      }
    },
    {
      "type": "Feature",
      "properties": {
        "id": 1047,
        "startid": 24,
        "endid": 25
      },
      "geometry": {
        "type": "MultiLineString",
        "coordinates": [
          [
            [
              1.75,
              4.86
            ],
            [
              2.4,
              4.885
            ]
          ]
        ]
      }
    },
    {
      "type": "Feature",
      "properties": {
        "id": 1048,
        "startid": 25,
        "endid": 24
      },
      "geometry": {
        "type": "MultiLineString",
        "coordinates": [
          [
            [
              2.4,
              4.885
            ],
            [
              1.75,
              4.86
            ]
          ]
        ]
      }
    },
    {
      "type": "Feature",
      "properties": {
        "id": 1049,
        "startid": 25,
        "endid": 26
      },
      "geometry": {
        "type": "MultiLineString",
        "coordinates": [
          [
            [
              2.4,
              4.885
            ],
            [
              3.05,
              4.91
            ]
          ]
        ]
      }
    },
    {
      "type": "Feature",
      "properties": {
        "id": 1050,
        "startid": 26,
        "endid": 25
      },
      "geometry": {
        "type": "MultiLineString",
        "coordinates": [
          [
            [
              3.05,
              4.91
            ],
            [
              2.4,
              4.885
            ]
          ]
        ]
      }
    },
    {
      "type": "Feature",
      "properties": {
        "id": 1051,
        "startid": 26,
        "endid": 27
      },
      "geometry": {
        "type": "MultiLineString",
        "coordinates": [
          [
            [
              3.05,
              4.91
            ],
            [
              3.55,
              5.41
            ]
          ]
        ]
      }
    },
    {
      "type": "Feature",
      "properties": {
        "id": 1052,
        "startid": 27,
        "endid": 26
      },
      "geometry": {
        "type": "MultiLineString",
        "coordinates": [
          [
            [
              3.55,
              5.41
            ],
            [
              3.05,
              4.91
            ]
          ]
        ]
      }
    },
    {
      "type": "Feature",
      "properties": {
        "id": 1053,
        "startid": 27,
        "endid": 28
      },
      "geometry": {
        "type": "MultiLineString",
        "coordinates": [
          [
            [
              3.55,
              5.41
            ],
            [
              2.5929,
              5.4671
            ]
          ]
        ]
      }
    },
    {
      "type": "Feature",
      "properties": {
        "id": 1054,
        "startid": 28,
        "endid": 27
      },
      "geometry": {
        "type": "MultiLineString",
        "coordinates": [
          [
            [
              2.5929,
              5.4671
            ],
            [
              3.55,
              5.41
            ]
          ]
        ]
      }
    },
    {
      "type": "Feature",
      "properties": {
        "id": 1055,
        "startid": 28,
        "endid": 29
      },
      "geometry": {
        "type": "MultiLineString",
        "coordinates": [
          [
            [
              2.5929,
              5.4671
            ],
            [
              1.6357,
              5.5243
            ]
          ]
        ]
      }
    },
    {
      "type": "Feature",
      "properties": {
        "id": 1056,
        "startid": 29,
        "endid": 28
      },
      "geometry": {
        "type": "MultiLineString",
        "coordinates": [
          [
            [
              1.6357,
              5.5243
            ],
            [
              2.5929,
              5.4671
            ]
          ]
        ]
      }
    },
    {
      "type": "Feature",
      "properties": {
        "id": 1057,
        "startid": 29,
        "endid": 30
      },
      "geometry": {
        "type": "MultiLineString",
        "coordinates": [
          [
            [
              1.6357,
              5.5243
            ],
            [
              0.6786,
              5.5814
            ]
          ]
        ]
      }
    },
    {
      "type": "Feature",
      "properties": {
        "id": 1058,
        "startid": 30,
        "endid": 29
      },
      "geometry": {
        "type": "MultiLineString",
        "coordinates": [
          [
            [
              0.6786,
              5.5814
            ],
            [
              1.6357,
              5.5243
            ]
          ]
        ]
      }
    },
    {
      "type": "Feature",
      "properties": {
        "id": 1059,
        "startid": 30,
        "endid": 31
      },
      "geometry": {
        "type": "MultiLineString",
        "coordinates": [
          [
            [
              0.6786,
              5.5814
            ],
            [
              -0.2786,
              5.6386
            ]
          ]
        ]
      }
    },
    {
      "type": "Feature",
      "properties": {
        "id": 1060,
        "startid": 31,
        "endid": 30
      },
      "geometry": {
        "type": "MultiLineString",
        "coordinates": [
          [
            [
              -0.2786,
              5.6386
            ],
            [
              0.6786,
              5.5814
            ]
          ]
        ]
      }
    },
    {
      "type": "Feature",
      "properties": {
        "id": 1061,
        "startid": 31,
        "endid": 32
      },
      "geometry": {
        "type": "MultiLineString",
        "coordinates": [
          [
            [
              -0.2786,
              5.6386
            ],
            [
              -1.2357,
              5.6957
            ]
          ]
        ]
      }
    },
    {
      "type": "Feature",
      "properties": {
        "id": 1062,
        "startid": 32,
        "endid": 31
      },
      "geometry": {
        "type": "MultiLineString",
        "coordinates": [
          [
            [
              -1.2357,
              5.6957
            ],
            [
              -0.2786,
              5.6386
            ]
          ]
        ]
      }
    },
    {
      "type": "Feature",
      "properties": {
        "id": 1063,
        "startid": 32,
        "endid": 33
      },
      "geometry": {
        "type": "MultiLineString",
        "coordinates": [
          [
            [
              -1.2357,
              5.6957
            ],
            [
              -2.1929,
              5.7529
            ]
          ]
        ]
      }
    },
    {
      "type": "Feature",
      "properties": {
        "id": 1064,
        "startid": 33,
        "endid": 32
      },
      "geometry": {
        "type": "MultiLineString",
        "coordinates": [
          [
            [
              -2.1929,
              5.7529
            ],
            [
              -1.2357,
              5.6957
            ]
          ]
        ]
      }
    },
    {
      "type": "Feature",
      "properties": {
        "id": 1065,
        "startid": 33,
        "endid": 34
      },
      "geometry": {
        "type": "MultiLineString",
        "coordinates": [
          [
            [
              -2.1929,
              5.7529
            ],
            [
              -3.15,
              5.81
            ]
          ]
        ]
      }
    },
    {
      "type": "Feature",
      "properties": {
        "id": 1066,
        "startid": 34,
        "endid": 33
      },
      "geometry": {
        "type": "MultiLineString",
        "coordinates": [
          [
            [
              -3.15,
              5.81
            ],
            [
              -2.1929,
              5.7529
            ]
          ]
        ]
      }
    },
    {
      "type": "Feature",
      "properties": {
        "id": 1067,
        "startid": 34,
        "endid": 35
      },
      "geometry": {
        "type": "MultiLineString",
        "coordinates": [
          [
            [
              -3.15,
              5.81
            ],
            [
              -3.575,
              5.41
            ]
          ]
        ]
      }
    },
    {
      "type": "Feature",
      "properties": {
        "id": 1068,
        "startid": 35,
        "endid": 34
      },
      "geometry": {
        "type": "MultiLineString",
        "coordinates": [
          [
            [
              -3.575,
              5.41
            ],
            [
              -3.15,
              5.81
            ]
          ]
        ]
      }
    },
    {
      "type": "Feature",
      "properties": {
        "id": 1069,
        "startid": 35,
        "endid": 36
      },
      "geometry": {
        "type": "MultiLineString",
        "coordinates": [
          [
            [
              -3.575,
              5.41
            ],
            [
              -4.0,
              5.01
            ]
          ]
        ]
      }
    },
    {
      "type": "Feature",
      "properties": {
        "id": 1070,
        "startid": 36,
        "endid": 35
      },
      "geometry": {
        "type": "MultiLineString",
        "coordinates": [
          [
            [
              -4.0,
              5.01
            ],
            [
              -3.575,
              5.41
            ]
          ]
        ]
      }
    },
    {
      "type": "Feature",
      "properties": {
        "id": 1071,
        "startid": 36,
        "endid": 37
      },
      "geometry": {
        "type": "MultiLineString",
        "coordinates": [
          [
            [
              -4.0,
              5.01
            ],
            [
              -4.1,
              4.16
            ]
          ]
        ]
      }
    },
    {
      "type": "Feature",
      "properties": {
        "id": 1072,
        "startid": 37,
        "endid": 36
      },
      "geometry": {
        "type": "MultiLineString",
        "coordinates": [
          [
            [
              -4.1,
              4.16
            ],
            [
              -4.0,
              5.01
            ]
          ]
        ]
      }
    },
    {
      "type": "Feature",
      "properties": {
        "id": 1073,
        "startid": 37,
        "endid": 38
      },
      "geometry": {
        "type": "MultiLineString",
        "coordinates": [
          [
            [
              -4.1,
              4.16
            ],
            [
              -4.2,
              3.31
            ]
          ]
        ]
      }
    },
    {
      "type": "Feature",
      "properties": {
        "id": 1074,
        "startid": 38,
        "endid": 37
      },
      "geometry": {
        "type": "MultiLineString",
        "coordinates": [
          [
            [
              -4.2,
              3.31
            ],
            [
              -4.1,
              4.16
            ]
          ]
        ]
      }
    },
    {
      "type": "Feature",
      "properties": {
        "id": 1075,
        "startid": 38,
        "endid": 39
      },
      "geometry": {
        "type": "MultiLineString",
        "coordinates": [
          [
            [
              -4.2,
              3.31
            ],
            [
              -5.0,
              3.26
            ]
          ]
        ]
      }
    },
    {
      "type": "Feature",
      "properties": {
        "id": 1076,
        "startid": 39,
        "endid": 38
      },
      "geometry": {
        "type": "MultiLineString",
        "coordinates": [
          [
            [
              -5.0,
              3.26
            ],
            [
              -4.2,
              3.31
            ]
          ]
        ]
      }
    },
    {
      "type": "Feature",
      "properties": {
        "id": 1077,
        "startid": 39,
        "endid": 40
      },
      "geometry": {
        "type": "MultiLineString",
        "coordinates": [
          [
            [
              -5.0,
              3.26
            ],
            [
              -5.8,
              3.21
            ]
          ]
        ]
      }
    },
    {
      "type": "Feature",
      "properties": {
        "id": 1078,
        "startid": 40,
        "endid": 39
      },
      "geometry": {
        "type": "MultiLineString",
        "coordinates": [
          [
            [
              -5.8,
              3.21
            ],
            [
              -5.0,
              3.26
            ]
          ]
        ]
      }
    },
    {
      "type": "Feature",
      "properties": {
        "id": 1079,
        "startid": 40,
        "endid": 41
      },
      "geometry": {
        "type": "MultiLineString",
        "coordinates": [
          [
            [
              -5.8,
              3.21
            ],
            [
              -6.2,
              3.66
            ]
          ]
        ]
      }
    },
    {
      "type": "Feature",
      "properties": {
        "id": 1080,
        "startid": 41,
        "endid": 40
      },
      "geometry": {
        "type": "MultiLineString",
        "coordinates": [
          [
            [
              -6.2,
              3.66
            ],
            [
              -5.8,
              3.21
            ]
          ]
        ]
      }
    },
    {
      "type": "Feature",
      "properties": {
        "id": 1081,
        "startid": 41,
        "endid": 42
      },
      "geometry": {
        "type": "MultiLineString",
        "coordinates": [
          [
            [
              -6.2,
              3.66
            ],
            [
              -6.125,
              3.035
            ]
          ]
        ]
      }
    },
    {
      "type": "Feature",
      "properties": {
        "id": 1082,
        "startid": 42,
        "endid": 41
      },
      "geometry": {
        "type": "MultiLineString",
        "coordinates": [
          [
            [
              -6.125,
              3.035
            ],
            [
              -6.2,
              3.66
            ]
          ]
        ]
      }
    },
    {
      "type": "Feature",
      "properties": {
        "id": 1083,
        "startid": 42,
        "endid": 1
      },
      "geometry": {
        "type": "MultiLineString",
        "coordinates": [
          [
            [
              -6.125,
              3.035
            ],
            [
              -6.05,
              2.41
            ]
          ]
        ]
      }
    },
    {
      "type": "Feature",
      "properties": {
        "id": 1084,
        "startid": 1,
        "endid": 42
      },
      "geometry": {
        "type": "MultiLineString",
        "coordinates": [
          [
            [
              -6.05,
              2.41
            ],
            [
              -6.125,
              3.035
            ]
          ]
        ]
      }
    }
  ]
}